Id,Label,timeset,city,country,name,latitude,longitude,indegree,outdegree,Degree,weighted indegree,weighted outdegree,Weighted Degree,Eccentricity,closnesscentrality,harmonicclosnesscentrality,betweenesscentrality,modularity_class,componentnumber,strongcompnum,clustering,eigencentrality
74,TIA,,Tirana,ALBANIA,Tirana International Airport,41.414742,19.72056,30,33,63,251,264,515,4,0.432902,0.460522,314.485263,1,0,724,0.441288,0.240037
0,LNZ,,Linz,AUSTRIA,Linz Airport,48.233212,14.18751,9,9,18,53,53,106,4,0.393755,0.414006,1.496398,0,0,724,0.688889,0.084177
1,VIE,,Vienna,AUSTRIA,Vienna International Airport,48.110271,16.569719,121,159,280,2357,2694,5051,3,0.532055,0.574665,3935.149393,0,0,724,0.262966,0.85796
2,BRU,,Brussels,BELGIUM,Brussels Airport,50.901379,4.484444,126,194,320,2082,2463,4545,3,0.533516,0.587539,4812.6434,0,0,724,0.184279,0.888562
4,ORY,,Paris,FRANCE,Paris Orly Airport,48.723331,2.379444,70,128,198,1914,2755,4669,3,0.484531,0.533299,5093.15354,5,0,724,0.140256,0.504865
5,CGN,,Cologne,GERMANY,Cologne Bonn Airport,50.866001,7.143,104,140,244,1106,1186,2292,4,0.495156,0.544971,3058.578762,0,0,724,0.197062,0.703225
6,FRA,,Frankfurt,GERMANY,Frankfurt Airport,50.026421,8.543125,150,292,442,4519,5859,10378,3,0.570505,0.641435,12641.824196,0,0,724,0.104281,0.96758
7,MUC,,Munich,GERMANY,Munich Airport,48.353779,11.78608,147,230,377,3837,4424,8261,3,0.553592,0.611226,7964.034975,0,0,724,0.165293,0.978764
8,ATH,,Athens,GREECE,Athens Eleftherios Venizelos,37.936352,23.94446,101,143,244,1663,2174,3837,3,0.518974,0.561277,4788.797897,6,0,724,0.252203,0.766622
9,BUD,,Budapest,HUNGARY,Budapest Ferenc Liszt International Airport,47.436932,19.25559,107,125,232,1087,1186,2273,3,0.520923,0.556299,2064.114134,0,0,724,0.368258,0.801748
10,AOI,,Ancona,ITALY,Ancona Airport,43.616341,13.36231,6,6,12,44,44,88,4,0.372316,0.390148,1.981918,0,0,724,0.333333,0.045436
11,BRI,,Bari,ITALY,Bari Karol Wojtyla Airport,41.138851,16.76059,56,58,114,406,410,816,4,0.438573,0.474082,215.924151,1,0,724,0.508469,0.443699
12,BLQ,,Bologna,ITALY,Bologna Guglielmo Marconi Airport,44.535439,11.28866,70,85,155,692,733,1425,3,0.483807,0.518023,768.645751,1,0,724,0.367579,0.55725
13,FLR,,Florence,ITALY,Florence Peretola Airport,43.809952,11.2051,23,22,45,350,339,689,4,0.422174,0.446361,38.681967,0,0,724,0.682971,0.218801
14,GOA,,Genoa,ITALY,Genoa Cristoforo Colombo Airport,44.41333,8.8375,20,20,40,169,169,338,4,0.430981,0.453913,20.507712,1,0,724,0.765789,0.191867
15,BGY,,Milan,ITALY,Milan Bergamo Il Caravaggio International Airport,45.673882,9.704166,88,111,199,804,880,1684,3,0.464816,0.512873,2075.4081,1,0,724,0.244308,0.584699
16,MXP,,Milan,ITALY,Milan Malpensa Airport,45.6306,8.728111,102,158,260,1770,2092,3862,3,0.532055,0.574322,3199.536325,1,0,724,0.224722,0.782175
17,PEG,,Perugia,ITALY,Perugia Umbria International Airport,43.095901,12.51322,5,5,10,17,17,34,4,0.378853,0.398043,0.89421,8,0,724,0.4,0.042292
18,PSA,,Pisa,ITALY,Pisa Galileo Galilei Airport,43.68391,10.39275,73,77,150,451,465,916,3,0.488676,0.518709,885.596821,1,0,724,0.411755,0.555004
19,RMI,,Rimini,ITALY,Rimini Federico Fellini Airport,44.02029,12.61174,6,0,6,22,0,22,0,0,0,0,3,0,306,0.3,0.032667
20,FCO,,Rome,ITALY,Rome Leonardo da Vinci Fiumicino Airport,41.80447,12.25079,110,180,290,2904,3550,6454,3,0.534986,0.583591,3700.431927,1,0,724,0.1982,0.818247
21,TSF,,Treviso,ITALY,Treviso Airport,45.648399,12.19442,42,43,85,223,226,449,4,0.421075,0.452798,167.092509,1,0,724,0.447398,0.30371
22,TRN,,Turin,ITALY,Turin Caselle Airport,45.20076,7.649631,35,39,74,389,403,792,4,0.429456,0.45872,194.741551,1,0,724,0.476383,0.282669
23,CUF,,Cuneo,ITALY,Turin Cuneo Levaldigi Airport,44.547009,7.623217,2,0,2,7,0,7,0,0,0,0,1,0,556,0,0.008408
24,VCE,,Venice,ITALY,Venice Marco Polo Airport,45.505268,12.35194,72,87,159,944,1021,1965,3,0.501291,0.530724,460.618192,0,0,724,0.450013,0.604152
25,VRN,,Verona,ITALY,Verona Airport,45.395699,10.88853,40,43,83,306,305,611,4,0.440763,0.47022,193.898526,1,0,724,0.456039,0.321625
26,AMS,,Amsterdam,NETHERLANDS,Amsterdam Schiphol Airport,52.308609,4.763889,151,270,421,4520,5694,10214,3,0.569168,0.633196,11911.222838,4,0,724,0.128052,1
27,BEG,,Belgrade,SERBIA,Belgrade Nikola Tesla Airport,44.818439,20.30913,57,65,122,557,613,1170,3,0.470674,0.501545,611.9037,0,0,724,0.448892,0.454144
28,LJU,,Ljubljana,SLOVENIA,Ljubljana Joze Pucnik Airport,46.223679,14.45761,38,43,81,306,315,621,4,0.449121,0.477257,207.263399,0,0,724,0.474561,0.313297
29,IST,,Istanbul,TURKEY,Istanbul Ataturk International Airport,40.976921,28.8146,103,274,377,2675,5019,7694,3,0.560624,0.630106,16647.450628,2,0,724,0.077458,0.722386
30,SAW,,Istanbul,TURKEY,Istanbul Sabiha Gokcen International Airport,40.898548,29.30921,53,112,165,1444,2435,3879,3,0.489909,0.531583,2775.002644,2,0,724,0.158265,0.425123
31,LGW,,London,UNITED KINGDOM,London Gatwick Airport,51.148048,-0.19027,123,194,317,2624,3183,5807,3,0.518697,0.578613,5691.9216,8,0,724,0.150052,0.822085
32,LTN,,London,UNITED KINGDOM,London Luton Airport,51.874722,-0.36833,103,127,230,1090,1236,2326,3,0.483566,0.532269,2764.112512,0,0,724,0.238345,0.707654
33,STN,,London,UNITED KINGDOM,London Stansted Airport,51.884998,0.235,142,184,326,1876,2119,3995,3,0.500774,0.56368,8166.513599,8,0,724,0.162656,0.817813
80,EVN,,Yerevan,ARMENIA,Yerevan Zvartnots International Airport,40.14727,44.395882,18,34,52,185,257,442,4,0.436601,0.46447,330.761189,3,0,724,0.296791,0.124604
34,MSQ,,Minsk,BELARUS,Minsk International Airport,53.882462,28.030729,36,55,91,389,485,874,3,0.465484,0.494164,408.982293,3,0,724,0.324579,0.270114
35,SSH,,Sharm el-Sheikh,EGYPT,Sharm el-Sheikh International Airport,27.97728,34.394951,23,0,23,55,0,55,0,0,0,0,2,0,398,0.600791,0.189409
36,LYS,,Lyon,FRANCE,Lyon Saint Exupery Airport,45.725552,5.081111,77,108,185,929,1176,2105,3,0.486961,0.52815,1645.074399,5,0,724,0.305725,0.627253
37,CDG,,Paris,FRANCE,Paris Charles de Gaulle Airport,49.012516,2.555752,133,275,408,3623,5225,8848,3,0.562572,0.63148,11963.183844,0,0,724,0.106695,0.910364
38,TBS,,Tbilisi,GEORGIA,Tbilisi International Airport,41.669159,44.95472,32,54,86,257,388,645,4,0.452892,0.484552,443.43445,2,0,724,0.270034,0.225761
39,IKA,,Tehran,IRAN,Tehran Imam Khomeini International Airport,35.416111,51.152222,32,0,32,341,0,341,0,0,0,0,2,0,324,0.699597,0.270443
40,TLV,,Tel Aviv,ISRAEL,Tel Aviv Ben Gurion International Airport,32.011379,34.886662,86,0,86,1279,0,1279,0,0,0,0,0,0,310,0.478386,0.640759
41,SCO,,Aktau,KAZAKHSTAN,Aktau Airport,43.86005,51.091969,8,0,8,71,0,71,0,0,0,0,3,0,280,0.821429,0.030793
42,TSE,,Astana,KAZAKHSTAN,Astana International Airport,51.022221,71.466942,16,45,61,253,516,769,4,0.431556,0.463783,1080.410471,3,0,724,0.168182,0.106857
43,BEY,,Beirut,LEBANON,Beirut Rafic Hariri International Airport,33.82093,35.48838,29,0,29,241,0,241,0,0,0,0,2,0,104,0.70936,0.258296
44,WAW,,Warsaw,POLAND,Warsaw Chopin Airport,52.165749,20.967119,101,130,231,1562,1839,3401,3,0.514029,0.553725,1957.216935,0,0,724,0.295707,0.736832
45,DOH,,Doha,QATAR,Doha Hamad International Airport,25.273056,51.608055,52,0,52,732,0,732,0,0,0,0,0,0,103,0.614253,0.429189
46,KRR,,Krasnodar,RUSSIA,Krasnodar International Airport,45.034679,39.170528,18,0,18,294,0,294,0,0,0,0,3,0,195,0.640523,0.109841
47,MRV,,Mineralnye Vody,RUSSIA,Mineralnye Vody Airport,44.225071,43.081879,13,0,13,177,0,177,0,0,0,0,3,0,191,0.596154,0.054437
48,DME,,Moscow,RUSSIA,Moscow Domodedovo International Airport,55.408779,37.906311,55,167,222,805,2295,3100,3,0.501291,0.558187,9018.733647,3,0,724,0.069034,0.406487
49,SVO,,Moscow,RUSSIA,Moscow Sheremetyevo International Airport,55.972641,37.414581,72,179,251,1858,3623,5481,3,0.516489,0.572091,7472.412889,3,0,724,0.10795,0.562368
50,VKO,,Moscow,RUSSIA,Moscow Vnukovo International Airport,55.59153,37.261478,33,121,154,498,1715,2213,4,0.447672,0.503776,5348.934781,3,0,724,0.039493,0.187554
51,OVB,,Novosibirsk,RUSSIA,Novosibirsk Tolmachevo Airport,55.012619,82.65065,18,0,18,204,0,204,0,0,0,0,3,0,155,0.558824,0.083587
52,ROV,,Rostov-on-Don,RUSSIA,Rostov-on-Don Platov International Airport,47.493889,39.924721,16,0,16,257,0,257,0,0,0,0,3,0,151,0.633333,0.087988
53,KUF,,Samara,RUSSIA,Samara Kurumoch International Airport,53.504848,50.16433,16,0,16,228,0,228,0,0,0,0,3,0,150,0.591667,0.092361
54,AER,,Sochi,RUSSIA,Sochi International Airport,43.449921,39.956581,10,29,39,304,394,698,4,0.395842,0.424305,33.049351,3,0,724,0.230296,0.050807
55,LED,,St. Petersburg,RUSSIA,St. Petersburg Pulkovo Airport,59.800289,30.262501,52,138,190,961,1621,2582,3,0.499229,0.546859,5416.388965,3,0,724,0.110335,0.404594
56,VOZ,,Voronezh,RUSSIA,Voronezh International Airport,51.814209,39.22958,8,0,8,99,0,99,0,0,0,0,3,0,148,0.785714,0.041783
57,SVX,,Yekaterinburg,RUSSIA,Yekaterinburg Koltsovo Airport,56.743099,60.802719,22,68,90,275,530,805,4,0.436994,0.476485,1260.097058,3,0,724,0.11445,0.142108
58,DAM,,Damascus,SYRIA,Damascus International Airport,33.410629,36.514259,1,0,1,1,0,1,0,0,0,0,3,0,424,0,0.001829
59,ASB,,Ashgabat,TURKMENISTAN,Ashgabat International Airport,37.986809,58.360958,12,0,12,69,0,69,0,0,0,0,2,0,54,0.659091,0.076185
60,KBP,,Kiev,UKRAINE,Kiev Boryspil International Airport,50.345001,30.89472,48,72,120,646,879,1525,3,0.465707,0.500172,946.47051,0,0,724,0.336659,0.397547
61,DXB,,Dubai,UNITED ARAB EMIRATES,Dubai International Airport,25.252769,55.364441,61,0,61,899,0,899,0,0,0,0,0,0,53,0.55847,0.476711
62,SHJ,,Sharjah,UNITED ARAB EMIRATES,Sharjah International Airport,25.328569,55.517151,13,0,13,73,0,73,0,0,0,0,2,0,60,0.685897,0.068582
81,GRZ,,Graz,AUSTRIA,Graz Airport,46.991058,15.43962,12,13,25,150,150,300,4,0.411441,0.433574,2.085004,0,0,724,0.868132,0.125263
92,DBV,,Dubrovnik,CROATIA,Dubrovnik Airport,42.561352,18.26824,56,59,115,293,298,591,3,0.469309,0.498455,317.828444,0,0,724,0.501639,0.481923
63,TXL,,Berlin,GERMANY,Berlin Tegel Airport,52.560001,13.288,85,102,187,1899,2008,3907,3,0.514846,0.544628,1415.908022,0,0,724,0.342566,0.635941
64,DUS,,Dusseldorf,GERMANY,Dusseldorf International Airport,51.289452,6.766775,120,163,283,2136,2309,4445,3,0.524298,0.571404,3848.240904,0,0,724,0.221249,0.828581
65,STR,,Stuttgart,GERMANY,Stuttgart Airport,48.689869,9.221964,89,106,195,1194,1244,2438,3,0.48745,0.527806,1082.288414,0,0,724,0.321725,0.66951
66,HER,,Heraklion,GREECE,Heraklion International Airport,35.33971,25.18029,82,101,183,639,671,1310,4,0.486717,0.525661,1896.488807,6,0,724,0.258869,0.570855
67,OPO,,Porto,PORTUGAL,Porto Francisco de Sa Carneiro Airport,41.248051,-8.68138,66,83,149,982,1031,2013,4,0.464371,0.50309,1234.345425,5,0,724,0.378657,0.541669
68,PMI,,Palma de Mallorca,SPAIN,Palma de Mallorca Airport,39.55167,2.738808,126,147,273,2568,2639,5207,3,0.497439,0.548747,4995.312501,8,0,724,0.213596,0.777617
69,ZRH,,Zurich,SWITZERLAND,Zurich Airport,47.464722,8.549167,111,164,275,2436,2810,5246,3,0.525149,0.572262,3543.810223,0,0,724,0.232336,0.82095
82,INN,,Innsbruck,AUSTRIA,Innsbruck Kranebitten Airport,47.260208,11.34396,10,10,20,79,79,158,4,0.398441,0.419413,2.93796,0,0,724,0.654545,0.095121
70,KGS,,Kos,GREECE,Kos Island International Airport,36.793331,27.09166,49,52,101,221,228,449,4,0.436994,0.470048,324.850969,6,0,724,0.404263,0.398454
71,RHO,,Rhodes,GREECE,Rhodes International Airport,36.405411,28.086189,77,97,174,367,404,771,4,0.479269,0.518967,1866.171592,6,0,724,0.241414,0.551292
78,GRO,,Girona,SPAIN,Girona Costa Brava Airport,41.900959,2.760547,44,46,90,166,176,342,4,0.426251,0.459063,444.386062,8,0,724,0.281915,0.27777
72,LHR,,London,UNITED KINGDOM,London Heathrow Airport,51.477501,-0.46138,87,195,282,3351,5371,8722,3,0.533516,0.587882,6036.380689,4,0,724,0.122763,0.672459
83,KLU,,Klagenfurt,AUSTRIA,Klagenfurt Airport,46.642509,14.33773,3,3,6,39,39,78,4,0.356854,0.370237,0,0,0,724,1,0.031919
73,HAM,,Hamburg,GERMANY,Hamburg Airport,53.630379,9.988228,102,117,219,1497,1564,3061,3,0.507315,0.544971,1744.317824,0,0,724,0.360669,0.77379
75,CFU,,Corfu,GREECE,Corfu International Airport,39.60194,19.911659,66,71,137,271,280,551,4,0.465038,0.499485,551.622836,6,0,724,0.335431,0.506947
84,SZG,,Salzburg,AUSTRIA,Salzburg Airport,47.793301,13.00433,20,20,40,161,162,323,4,0.422358,0.446275,17.2362,0,0,724,0.628571,0.180936
217,HRG,,Hurghada,EGYPT,Hurghada International Airport,27.17831,33.799431,43,0,43,218,0,218,0,0,0,0,0,0,355,0.45515,0.330857
76,SXF,,Berlin,GERMANY,Berlin Schonefeld Airport,52.380001,13.5225,99,113,212,919,966,1885,3,0.498204,0.53759,1509.13619,8,0,724,0.363227,0.720867
77,OLB,,Olbia,ITALY,Olbia – Costa Smeralda Airport,40.898659,9.517628,44,44,88,247,247,494,3,0.437584,0.467559,166.832675,1,0,724,0.539394,0.376427
79,ALG,,Algiers,ALGERIA,Algiers Houari Boumediene Airport,36.69101,3.215408,30,0,30,402,0,402,0,0,0,0,5,0,425,0.731034,0.269667
190,LGG,,Liege,BELGIUM,Liege Airport,50.636379,5.442778,53,78,131,212,286,498,3,0.473197,0.507896,1154.291219,0,0,724,0.298316,0.409216
85,SJJ,,Sarajevo,BOSNIA AND HERZEGOVINA,Sarajevo International Airport,43.824581,18.331461,13,16,29,98,110,208,4,0.404078,0.426965,5.570795,0,0,724,0.641667,0.11601
86,TZL,,Tuzla,BOSNIA AND HERZEGOVINA,Tuzla International Airport,44.458649,18.724779,13,14,27,40,42,82,4,0.370187,0.38989,19.085898,8,0,724,0.10989,0.074763
87,BOJ,,Burgas,BULGARIA,Burgas Airport,42.56958,27.51523,31,32,63,68,71,139,4,0.439764,0.465414,189.338097,0,0,724,0.41533,0.242224
3,SOF,,Sofia,BULGARIA,Sofia Airport,42.69519,23.40616,73,77,150,566,610,1176,3,0.475281,0.509097,558.0425,0,0,724,0.469977,0.588138
88,VAR,,Varna,BULGARIA,Varna Airport,43.232071,27.8251,32,29,61,99,103,202,4,0.438771,0.46447,136.276563,0,0,724,0.416221,0.257697
89,YYZ,,Toronto,CANADA,Toronto Pearson International Airport,43.677219,-79.630501,27,0,27,314,0,314,0,0,0,0,4,0,414,0.779202,0.26693
90,PEK,,Beijing,CHINA,Beijing Capital International Airport,40.080109,116.584503,34,0,34,316,0,316,0,0,0,0,0,0,413,0.795009,0.316476
91,PVG,,Shanghai,CHINA,Shanghai Pudong International Airport,31.14337,121.805199,24,0,24,358,0,358,0,0,0,0,0,0,412,0.757246,0.222363
93,SPU,,Split,CROATIA,Split Airport,43.53894,16.29796,55,58,113,297,298,595,3,0.454588,0.486612,306.682972,0,0,724,0.518754,0.476108
94,ZAG,,Zagreb,CROATIA,Zagreb Airport,45.742931,16.068769,36,42,78,417,457,874,3,0.472966,0.495366,211.064468,0,0,724,0.586932,0.331643
95,LCA,,Larnaca,CYPRUS,Larnaca International Airport,34.875111,33.624851,68,88,156,566,704,1270,3,0.487205,0.521456,922.055334,6,0,724,0.329162,0.542611
96,PRG,,Prague,CZECH REPUBLIC,Prague Vaclav Havel Airport,50.10083,14.26,100,128,228,1282,1466,2748,3,0.51842,0.555784,2019.246191,0,0,724,0.344488,0.788283
97,CPH,,Copenhagen,DENMARK,Copenhagen Airport,55.608387,12.645351,118,166,284,2519,2978,5497,3,0.521762,0.570889,4275.573426,7,0,724,0.242826,0.853719
98,CAI,,Cairo,EGYPT,Cairo International Airport,30.121941,31.40555,26,0,26,289,0,289,0,0,0,0,2,0,404,0.806154,0.257515
99,TLL,,Tallinn,ESTONIA,Tallinn Lennart Meri Airport,59.413311,24.83284,45,47,92,429,489,918,3,0.475514,0.49897,778.431143,7,0,724,0.529255,0.369625
100,ADD,,Addis Ababa,ETHIOPIA,Addis Ababa Bole Airport,8.977889,38.799309,11,0,11,63,0,63,0,0,0,0,0,0,395,0.872727,0.111917
101,HEL,,Helsinki,FINLAND,Helsinki Vantaa Airport,60.317219,24.963329,85,126,211,1675,2061,3736,3,0.511322,0.550635,5810.659651,7,0,724,0.236158,0.639821
102,BSL,,Basel,FRANCE,Basel Mulhouse-Freiburg EuroAirport,47.5989,7.5283,81,97,178,768,790,1558,3,0.485986,0.523687,1214.672465,8,0,724,0.36477,0.634157
103,MRS,,Marseille,FRANCE,Marseille Provence Airport,43.436661,5.215,65,98,163,775,1015,1790,3,0.471131,0.513217,1352.925966,5,0,724,0.294235,0.53592
104,NTE,,Nantes,FRANCE,Nantes Atlantique Airport,47.15694,-1.60777,63,82,145,623,668,1291,3,0.458451,0.49794,671.431781,5,0,724,0.390846,0.513268
105,NCE,,Nice,FRANCE,Nice Cote d'Azur Airport,43.665272,7.215,78,99,177,1228,2206,3434,3,0.50705,0.53862,1906.935353,5,0,724,0.363533,0.628562
106,TLS,,Toulouse,FRANCE,Toulouse Blagnac Airport,43.634998,1.367778,65,80,145,905,994,1899,3,0.466155,0.503261,554.694756,5,0,724,0.410069,0.538206
107,HHN,,Hahn,GERMANY,Frankfurt Hahn Airport,49.948669,7.263892,47,55,102,149,180,329,4,0.431747,0.466444,799.301224,8,0,724,0.19024,0.269231
108,HAJ,,Hannover,GERMANY,Hannover Langenhagen Airport,52.461048,9.685078,58,68,126,594,616,1210,3,0.464149,0.497597,386.672241,0,0,724,0.336699,0.441898
109,LEJ,,Leipzig,GERMANY,Leipzig Halle Airport,51.432442,12.24163,31,41,72,255,286,541,4,0.45395,0.480604,172.001246,0,0,724,0.375969,0.25307
110,NUE,,Nurnberg,GERMANY,Nuremberg Airport,49.498699,11.06689,56,61,117,461,477,938,3,0.45395,0.487127,175.909325,0,0,724,0.450333,0.470552
111,CHQ,,Chania,GREECE,Chania International Airport,35.531738,24.14967,56,58,114,216,215,431,4,0.458668,0.489959,818.502973,6,0,724,0.393337,0.422269
112,KVA,,Kavala,GREECE,Kavala International Airport,40.9133,24.619221,8,0,8,30,0,30,0,0,0,0,6,0,409,0.892857,0.09014
113,SMI,,Samos,GREECE,Samos International Airport,37.689991,26.911659,14,0,14,53,0,53,0,0,0,0,6,0,363,0.934066,0.145943
114,JTR,,Santorini,GREECE,Santorini Thira National Airport,36.399158,25.47933,32,31,63,242,244,486,4,0.429076,0.456231,40.556321,6,0,724,0.731061,0.30028
115,SKG,,Thessaloniki,GREECE,Thessaloniki International Airport,40.519718,22.970949,67,81,148,522,589,1111,4,0.481886,0.515362,1260.22179,6,0,724,0.321759,0.500915
116,HKG,,Hong Kong,HONG KONG,Hong Kong International Airport,22.30888,113.914703,23,0,23,252,0,252,0,0,0,0,4,0,282,0.784585,0.225436
117,DEL,,Delhi,INDIA,Delhi Indira Gandhi International Airport,28.5665,77.103081,20,0,20,195,0,195,0,0,0,0,4,0,281,0.794737,0.187117
118,SYZ,,Shiraz,IRAN,Shiraz International Airport,29.53924,52.589779,2,0,2,13,0,13,0,0,0,0,2,0,408,1,0.021615
119,EBL,,Arbil,IRAQ,Erbil International Airport,36.23761,43.96315,11,0,11,58,0,58,0,0,0,0,2,0,359,0.836364,0.10181
120,DUB,,Dublin,IRELAND,Dublin Airport,53.421379,-6.27,122,162,284,2157,2514,4671,3,0.506257,0.559732,3311.941482,4,0,724,0.258569,0.879041
122,CTA,,Catania,ITALY,Catania Fontanarossa Airport,37.466782,15.0664,65,69,134,773,801,1574,3,0.478325,0.508582,720.434553,1,0,724,0.4853,0.537188
123,SUF,,Lamezia Terme,ITALY,Lamezia Terme Airport,38.905392,16.24226,33,32,65,204,203,407,4,0.41549,0.443272,73.27075,1,0,724,0.455437,0.257662
124,NAP,,Naples,ITALY,Naples Airport,40.886028,14.29078,88,99,187,824,855,1679,4,0.486473,0.524888,751.441762,1,0,724,0.422284,0.698299
125,PMO,,Palermo,ITALY,Palermo Falcone-Borsellino Airport,38.175949,13.09101,51,59,110,504,591,1095,4,0.439367,0.474339,320.910667,1,0,724,0.459965,0.411391
260,NRT,,Tokyo,JAPAN,Tokyo Narita International Airport,35.764721,140.386307,18,0,18,161,0,161,0,0,0,0,0,0,300,0.937908,0.189552
126,AMM,,Amman,JORDAN,Amman Queen Alia International Airport,31.722549,35.99321,24,0,24,189,0,189,0,0,0,0,2,0,299,0.708333,0.217835
127,PRN,,Pristina,KOSOVO,Pristina Adem Jashari International Airport,42.572769,21.03583,24,24,48,147,149,296,4,0.427753,0.452111,21.181663,0,0,724,0.695,0.226266
128,RIX,,Riga,LATVIA,Riga International Airport,56.923611,23.971109,81,89,170,858,904,1762,3,0.502328,0.532097,1975.036124,7,0,724,0.407048,0.613529
129,VNO,,Vilnius,LITHUANIA,Vilnius International Airport,54.63707,25.2878,61,65,126,446,461,907,3,0.475281,0.504978,375.675519,7,0,724,0.464569,0.484199
130,LUX,,Luxembourg,LUXEMBOURG,Luxembourg Findel Airport,49.623329,6.204444,65,114,179,642,815,1457,4,0.483085,0.527635,2091.684964,0,0,724,0.207093,0.533999
131,SKP,,Skopje,MACEDONIA,Skopje International Airport,41.96162,21.62138,33,36,69,159,168,327,4,0.413191,0.442585,140.23693,0,0,724,0.322222,0.226209
132,MLA,,Luqa,MALTA,Luqa Malta International Airport,35.857491,14.4775,98,102,200,540,566,1106,3,0.505203,0.538448,1173.068836,1,0,724,0.433086,0.747215
133,KIV,,Chisinau,MOLDOVA,Chisinau International Airport,46.927738,28.930969,36,41,77,274,284,558,4,0.460626,0.486268,319.184196,3,0,724,0.481098,0.296513
134,TGD,,Podgorica,MONTENEGRO,Podgorica Airport,42.35939,19.25189,18,19,37,127,127,254,4,0.421075,0.444559,27.936247,0,0,724,0.649123,0.167363
135,RAK,,Marrakesh,MOROCCO,Marrakesh Menara Airport,31.60688,-8.0363,55,0,55,320,0,320,0,0,0,0,5,0,257,0.571044,0.4583
136,RTM,,Rotterdam,NETHERLANDS,Rotterdam The Hague Airport,51.95694,4.437222,30,32,62,207,215,422,4,0.407299,0.43529,457.191003,8,0,724,0.254735,0.213091
137,OSL,,Oslo,NORWAY,Oslo Gardermoen Airport,60.193909,11.10036,87,129,216,2296,2715,5011,3,0.509979,0.550807,6896.887476,7,0,724,0.23065,0.655463
505,ISB,,Islamabad,PAKISTAN,Islamabad International Airport,33.549084,72.825653,8,0,8,30,0,30,0,0,0,0,4,0,334,0.892857,0.085081
138,GDN,,Gdansk,POLAND,Gdansk Lech Walesa Airport,54.37756,18.466221,60,63,123,426,438,864,3,0.446027,0.481291,938.747788,7,0,724,0.384425,0.421973
139,KRK,,Krakow,POLAND,Krakow John Paul II International Airport,50.077728,19.78483,78,84,162,554,577,1131,3,0.464371,0.503261,627.247005,0,0,724,0.45611,0.622489
140,FAO,,Faro,PORTUGAL,Faro Airport,37.01442,-7.96591,75,81,156,743,761,1504,3,0.456941,0.496395,922.164117,8,0,724,0.329012,0.553643
141,FNC,,Funchal,PORTUGAL,Funchal Cristiano Ronaldo Airport,32.69788,-16.774401,45,47,92,229,261,490,3,0.440363,0.470992,147.785466,5,0,724,0.504163,0.396331
142,LIS,,Lisbon,PORTUGAL,Lisbon Humberto Delgado Airport,38.781311,-9.13591,90,141,231,2016,2364,4380,3,0.520086,0.560934,4600.34861,5,0,724,0.249326,0.733292
143,OTP,,Bucharest,ROMANIA,Bucharest Henri Coanda International Airport,44.572159,26.102171,87,99,186,1137,1284,2421,3,0.492643,0.529008,1145.642272,0,0,724,0.404453,0.676235
144,IAS,,Iasi,ROMANIA,Iasi International Airport,47.17849,27.62063,17,18,35,119,124,243,4,0.393755,0.417611,8.644116,0,0,724,0.620915,0.147238
145,SBZ,,Sibiu,ROMANIA,Sibiu International Airport,45.785789,24.091181,10,0,10,71,0,71,0,0,0,0,0,0,319,0.511111,0.083561
146,KSC,,Kosice,SLOVAKIA,Kosice International Airport,48.663052,21.24111,7,0,7,54,0,54,0,0,0,0,0,0,164,0.761905,0.06495
148,ICN,,Seoul,SOUTH KOREA,Seoul Incheon International Airport,37.46907,126.4505,26,0,26,250,0,250,0,0,0,0,0,0,135,0.806154,0.245191
149,BCN,,Barcelona,SPAIN,Barcelona El Prat Airport,41.29707,2.078463,139,197,336,3399,3847,7246,3,0.544893,0.595091,5090.222983,8,0,724,0.212991,0.96017
150,BIO,,Bilbao,SPAIN,Bilbao Airport,43.30109,-2.9106,43,45,88,550,560,1110,3,0.456512,0.483694,118.769996,8,0,724,0.705556,0.412189
151,FUE,,Fuerteventura,SPAIN,Fuerteventura Airport,28.452709,-13.8637,63,63,126,444,446,890,4,0.438573,0.475112,284.606261,8,0,724,0.479195,0.503818
152,LPA,,Las Palmas,SPAIN,Gran Canaria Airport,27.931881,-15.3865,88,112,200,1096,1191,2287,3,0.473428,0.519739,2269.823433,8,0,724,0.30703,0.672264
153,IBZ,,Ibiza,SPAIN,Ibiza Airport,38.872849,1.373117,68,72,140,786,795,1581,3,0.444394,0.483007,532.249378,8,0,724,0.386709,0.520851
154,MAD,,Madrid,SPAIN,Madrid Barajas Airport,40.493549,-3.56676,116,201,317,3365,4437,7802,3,0.540646,0.594061,6574.633788,8,0,724,0.18107,0.873097
156,AGP,,Malaga,SPAIN,Malaga Costa Del Sol Airport,36.6749,-4.4991,117,128,245,1437,1534,2971,3,0.513214,0.552523,3508.086536,8,0,724,0.298032,0.790266
157,TFS,,Tenerife,SPAIN,Tenerife South Airport,28.04447,-16.572399,91,99,190,503,520,1023,3,0.487695,0.525575,1189.865766,8,0,724,0.355152,0.681403
158,ZAZ,,Zaragoza,SPAIN,Zaragoza Airport,41.666241,-1.04155,15,23,38,47,71,118,4,0.400908,0.426622,61.565585,8,0,724,0.296923,0.13041
159,GOT,,Gothenburg,SWEDEN,Gothenburg Landvetter Airport,57.66283,12.27981,62,70,132,670,737,1407,3,0.47389,0.505664,1310.555896,7,0,724,0.412475,0.50429
160,ARN,,Stockholm,SWEDEN,Stockholm Arlanda Airport,59.651939,17.91861,99,144,243,2002,2727,4729,3,0.524865,0.565225,6906.571466,7,0,724,0.247718,0.744287
161,BRN,,Bern,SWITZERLAND,Bern Airport,46.914101,7.497153,15,17,32,65,71,136,4,0.387934,0.411174,267.360339,0,0,724,0.404412,0.109808
162,GVA,,Geneva,SWITZERLAND,Geneva International Airport,46.23806,6.10895,91,113,204,1434,1557,2991,3,0.511053,0.546001,939.145179,0,0,724,0.376339,0.716292
163,ACH,,St. Gallen,SWITZERLAND,St. Gallen Altenrhein Airport,47.485031,9.560775,1,0,1,18,0,18,0,0,0,0,0,0,407,0,0.011718
164,TPE,,Taipei,TAIWAN,Taiwan Taoyuan International Airport,25.07773,121.232803,10,0,10,65,0,65,0,0,0,0,0,0,129,0.877778,0.101605
165,BKK,,Bangkok,THAILAND,Bangkok Suvarnabhumi Airport,13.6811,100.7472,23,0,23,226,0,226,0,0,0,0,0,0,67,0.725296,0.209484
166,DJE,,Djerba,TUNISIA,Djerba Zarzis International Airport,33.875031,10.77546,29,0,29,114,0,114,0,0,0,0,5,0,107,0.600985,0.244916
167,MIR,,Monastir,TUNISIA,Monastir Habib Bourguiba International Airport,35.758049,10.75472,31,0,31,87,0,87,0,0,0,0,5,0,105,0.531183,0.254154
168,TUN,,Tunis,TUNISIA,Tunis Carthage International Airport,36.851028,10.22721,35,0,35,334,0,334,0,0,0,0,5,0,106,0.779832,0.330165
169,ESB,,Ankara,TURKEY,Ankara Esenboga International Airport,40.128078,32.995079,22,60,82,769,1274,2043,4,0.431556,0.468847,1026.216455,2,0,724,0.119774,0.146859
170,AYT,,Antalya,TURKEY,Antalya Airport,36.898731,30.800461,86,132,218,1317,1646,2963,4,0.501809,0.546601,6361.503213,2,0,724,0.140414,0.547424
171,ADB,,Izmir,TURKEY,Izmir Adnan Menderes International Airport,38.292389,27.15695,31,52,83,727,877,1604,4,0.443379,0.475541,595.91953,2,0,724,0.261611,0.272721
172,DNK,,Dnipropetrovsk,UKRAINE,Dnipropetrovsk International Airport,48.35722,35.100552,3,0,3,31,0,31,0,0,0,0,0,0,65,1,0.024779
173,LWO,,Lviv,UKRAINE,Lviv Danylo Halytskyi International Airport,49.8125,23.95611,23,0,23,119,0,119,0,0,0,0,0,0,59,0.567194,0.177228
174,ODS,,Odessa,UKRAINE,Odessa International Airport,46.426762,30.67646,12,14,26,110,131,241,4,0.388867,0.410745,7.791618,2,0,724,0.598901,0.07815
175,BHX,,Birmingham,UNITED KINGDOM,Birmingham Airport,52.45385,-1.74802,86,112,198,1051,1156,2207,3,0.470902,0.517851,1597.102323,4,0,724,0.252333,0.627189
176,BRS,,Bristol,UNITED KINGDOM,Bristol Airport,51.38266,-2.71908,86,103,189,719,767,1486,3,0.461064,0.507209,1004.149599,8,0,724,0.315534,0.656027
177,EDI,,Edinburgh,UNITED KINGDOM,Edinburgh Airport,55.950001,-3.3725,110,130,240,1228,1393,2621,3,0.49846,0.543598,2435.580352,4,0,724,0.31932,0.803361
178,SEN,,Southend,UNITED KINGDOM,London Southend Airport,51.571381,0.695556,24,26,50,176,188,364,4,0.411092,0.43735,83.251067,4,0,724,0.483077,0.202404
179,MAN,,Manchester,UNITED KINGDOM,Manchester Airport,53.353741,-2.27495,117,180,297,1769,2201,3970,3,0.509711,0.568143,3528.138284,4,0,724,0.185697,0.818139
180,ORD,,Chicago,UNITED STATES,Chicago O'Hare International Airport,41.978142,-87.9058,28,0,28,377,0,377,0,0,0,0,4,0,32,0.829365,0.281857
181,LAX,,Los Angeles,UNITED STATES,Los Angeles International Airport,33.94252,-118.406998,22,0,22,255,0,255,0,0,0,0,4,0,26,0.857143,0.228631
182,MIA,,Miami,UNITED STATES,Miami International Airport,25.793249,-80.290497,19,0,19,174,0,174,0,0,0,0,4,0,25,0.97076,0.209154
183,JFK,,New York,UNITED STATES,New York John F. Kennedy International Airport,40.639751,-73.7789,42,0,42,818,0,818,0,0,0,0,4,0,21,0.745064,0.390788
184,EWR,,New York,UNITED STATES,New York Newark Liberty International Airport,40.692501,-74.168602,32,0,32,415,0,415,0,0,0,0,4,0,0,0.823589,0.328752
185,IAD,,Washington,UNITED STATES,Washington Dulles International Airport,38.947441,-77.4599,17,0,17,246,0,246,0,0,0,0,4,0,12,0.955882,0.186576
215,GYD,,Baku,AZERBAIJAN,Baku Heydar Aliyev International Airport,40.467499,50.046661,28,71,99,269,506,775,4,0.459536,0.495966,641.744963,2,0,724,0.165594,0.180956
186,KBL,,Kabul,AFGHANISTAN,Kabul International Airport,34.565842,69.21241,4,0,4,23,0,23,0,0,0,0,2,0,423,0.833333,0.015901
188,KVD,,Ganja,AZERBAIJAN,Ganja International Airport,40.737778,46.317501,4,0,4,14,0,14,0,0,0,0,3,0,422,0.833333,0.01653
189,DAC,,Dhaka,BANGLADESH,Dhaka Shahjalal International Airport,23.84333,90.397781,3,0,3,11,0,11,0,0,0,0,2,0,421,1,0.013762
191,URC,,Urumqi,CHINA,Urumqi Diwopu International Airport,43.907101,87.474243,5,0,5,28,0,28,0,0,0,0,3,0,420,1,0.016346
192,CGO,,Zhengzhou,CHINA,Zhengzhou Xinzheng International Airport,34.519669,113.840797,5,0,5,21,0,21,0,0,0,0,2,0,419,0.7,0.025002
493,BLR,,Bengaluru,INDIA,Bengaluru Kempegowda International Airport,13.198889,77.705559,5,0,5,36,0,36,0,0,0,0,4,0,418,1,0.051171
193,NJF,,Najaf,IRAQ,Al Najaf International Airport,31.991667,44.404167,3,0,3,10,0,10,0,0,0,0,2,0,369,0.666667,0.024155
194,BGW,,Baghdad,IRAQ,Baghdad International Airport,33.262501,44.234444,13,0,13,116,0,116,0,0,0,0,2,0,368,0.666667,0.098752
195,BSR,,Basra,IRAQ,Basra International Airport,30.549061,47.66214,2,0,2,14,0,14,0,0,0,0,2,0,417,1,0.012502
197,KMQ,,Komatsu,JAPAN,Komatsu Airport,36.394611,136.406494,2,0,2,5,0,5,0,0,0,0,2,0,416,1,0.009897
198,KIX,,Osaka,JAPAN,Osaka Kansai International Airport,34.427299,135.244003,6,0,6,36,0,36,0,0,0,0,0,0,302,0.933333,0.061405
199,ALA,,Almaty,KAZAKHSTAN,Almaty International Airport,43.35207,77.040497,13,49,62,269,577,846,4,0.417096,0.451768,838.78152,3,0,724,0.107755,0.082231
200,GUW,,Atyrau,KAZAKHSTAN,Atyrau Airport,47.121941,51.821381,8,0,8,57,0,57,0,0,0,0,3,0,276,0.892857,0.053203
201,NBO,,Nairobi,KENYA,Nairobi Jomo Kenyatta International Airport,-1.31924,36.927769,7,0,7,63,0,63,0,0,0,0,4,0,297,0.952381,0.072249
202,KWI,,Kuwait City,KUWAIT,Kuwait International Airport,29.226561,47.968922,12,0,12,142,0,142,0,0,0,0,2,0,296,0.734848,0.099972
203,FRU,,Bishkek,KYRGYZSTAN,Bishkek Manas International Airport,43.061298,74.477547,9,0,9,90,0,90,0,0,0,0,3,0,264,0.736111,0.042173
204,KUL,,Kuala Lumpur,MALAYSIA,Kuala Lumpur International Airport,2.745578,101.7099,5,0,5,44,0,44,0,0,0,0,4,0,263,0.8,0.036613
205,MST,,Maastricht,NETHERLANDS,Maastricht Aachen Airport,50.911652,5.770144,17,22,39,44,65,109,4,0.395681,0.420014,70.788663,2,0,724,0.126154,0.11316
206,KZN,,Kazan,RUSSIA,Kazan International Airport,55.606178,49.278721,21,0,21,242,0,242,0,0,0,0,3,0,197,0.62381,0.122044
207,ZIA,,Moscow,RUSSIA,Moscow Zhukovsky Airport,55.553333,38.151669,5,0,5,37,0,37,0,0,0,0,2,0,249,0.8,0.030622
208,SGC,,Surgut,RUSSIA,Surgut International Airport,61.343689,73.40184,6,0,6,79,0,79,0,0,0,0,3,0,147,0.933333,0.028271
209,UFA,,Ufa,RUSSIA,Ufa International Airport,54.55751,55.874409,13,0,13,192,0,192,0,0,0,0,3,0,145,0.647436,0.074164
210,SIN,,Singapore,SINGAPORE,Singapore Changi Airport,1.350189,103.9944,21,0,21,219,0,219,0,0,0,0,4,0,165,0.866667,0.215841
211,IEV,,Kiev,UKRAINE,Kiev Zhuliany Airport,50.401691,30.44969,29,36,65,160,206,366,4,0.403239,0.432801,156.208853,2,0,724,0.295238,0.19163
212,AUH,,Abu Dhabi,UNITED ARAB EMIRATES,Abu Dhabi International Airport,24.43297,54.651131,26,0,26,272,0,272,0,0,0,0,4,0,57,0.72,0.234641
214,TAS,,Tashkent,UZBEKISTAN,Tashkent International Airport,41.257858,69.281181,16,0,16,109,0,109,0,0,0,0,3,0,11,0.720833,0.098097
216,CRL,,Brussels,BELGIUM,Brussels South Charleroi Airport,50.459999,4.452778,83,104,187,490,573,1063,4,0.437387,0.488157,1903.571238,8,0,724,0.176374,0.502127
218,BUS,,Batumi,GEORGIA,Batumi International Airport,41.610271,41.599689,5,0,5,35,0,35,0,0,0,0,2,0,415,0.7,0.025242
219,KGD,,Kaliningrad,RUSSIA,Kaliningrad Khrabrovo Airport,54.890049,20.59263,11,0,11,223,0,223,0,0,0,0,3,0,198,0.709091,0.074523
220,GOJ,,Nizhny Novgorod,RUSSIA,Nizhny Novgorod International Airport,56.23011,43.784039,9,0,9,127,0,127,0,0,0,0,3,0,185,0.708333,0.046023
221,HRK,,Kharkiv,UKRAINE,Kharkiv International Airport,49.924782,36.289982,8,0,8,63,0,63,0,0,0,0,0,0,63,0.482143,0.053273
222,OZH,,Zaporizhia,UKRAINE,Zaporizhia International Airport,47.867001,35.315689,6,0,6,46,0,46,0,0,0,0,2,0,58,0.5,0.035332
358,ANR,,Antwerp,BELGIUM,Antwerp International Airport,51.189442,4.460278,13,14,27,78,79,157,4,0.382434,0.403536,10.004608,4,0,724,0.521978,0.102056
223,NDR,,Nador,MOROCCO,Nador International Airport,34.988888,-3.028333,13,0,13,45,0,45,0,0,0,0,8,0,314,0.352564,0.094083
224,ALC,,Alicante,SPAIN,Alicante Airport,38.282162,-0.55815,104,117,221,1036,1099,2135,3,0.495408,0.537075,4364.054414,8,0,724,0.272473,0.681567
225,MJV,,Murcia,SPAIN,Murcia San Javier Airport,37.774971,-0.81238,19,20,39,106,111,217,4,0.403742,0.429025,48.295329,8,0,724,0.263158,0.152621
226,LCY,,London,UNITED KINGDOM,London City Airport,51.505268,0.055278,29,34,63,910,945,1855,4,0.415846,0.445074,242.980189,4,0,724,0.368093,0.213315
227,LAD,,Luanda,ANGOLA,Luanda Quatro de Fevereiro Airport,-8.85837,13.23117,7,0,7,43,0,43,0,0,0,0,5,0,481,0.97619,0.078053
228,OUA,,Ouagadougou,BURKINA FASO,Ouagadougou Airport,12.35319,-1.51241,4,0,4,12,0,12,0,0,0,0,0,0,480,0.833333,0.04176
229,BJM,,Bujumbura,BURUNDI,Bujumbura International Airport,-3.32401,29.31851,1,0,1,1,0,1,0,0,0,0,0,0,479,0,0.012125
230,DLA,,Douala,CAMEROON,Douala International Airport,4.006081,9.719481,4,0,4,20,0,20,0,0,0,0,0,0,478,0.833333,0.04176
231,YUL,,Montreal,CANADA,Montreal Pierre Elliott Trudeau Airport,45.470551,-73.740799,26,0,26,157,0,157,0,0,0,0,0,0,432,0.903077,0.262543
232,BVC,,Boa Vista,CAPE VERDE,Boa Vista Rabil Airport,16.13653,-22.8888,16,0,16,28,0,28,0,0,0,0,1,0,469,0.6875,0.159133
233,SZX,,Shenzhen,CHINA,Shenzhen Bao'an International Airport,22.63925,113.8106,4,0,4,11,0,11,0,0,0,0,0,0,477,1,0.044963
234,TSN,,Tianjin,CHINA,Tianjin Binhai International Airport,39.124352,117.3461,8,0,8,65,0,65,0,0,0,0,0,0,476,0.625,0.073193
235,ABJ,,Abidjan,COTE D'IVOIRE (IVORY COAST),Abidjan Port Bouet Airport,5.261386,-3.92629,5,0,5,19,0,19,0,0,0,0,0,0,475,0.6,0.048757
236,BWK,,Bol,CROATIA,Bol Brac Airport,43.285702,16.679701,5,0,5,7,0,7,0,0,0,0,0,0,428,0.4,0.026871
237,ZAD,,Zadar,CROATIA,Zadar Airport,44.108261,15.34669,25,25,50,73,73,146,4,0.404246,0.430827,81.860891,0,0,724,0.363077,0.200024
238,VRA,,Varadero,CUBA,Varadero Juan Gualberto Gomez Airport,23.034439,-81.435204,10,0,10,19,0,19,0,0,0,0,0,0,474,0.744444,0.108548
239,PFO,,Pafos,CYPRUS,Paphos International Airport,34.718029,32.485729,41,47,88,218,230,448,4,0.432517,0.464641,188.703852,8,0,724,0.378816,0.325711
240,FIH,,Kinshasa,DEMOCRATIC REPUBLIC OF THE CONGO,Kinshasa N'Djili Airport,-4.38575,15.44456,3,0,3,13,0,13,0,0,0,0,2,0,473,1,0.034468
241,BLL,,Billund,DENMARK,Billund Airport,55.740318,9.151778,47,57,104,358,377,735,3,0.465038,0.494507,399.380844,7,0,724,0.427632,0.387291
242,PUJ,,Punta Cana,DOMINICAN REPUBLIC,Punta Cana International Airport,18.56736,-68.363403,16,0,16,57,0,57,0,0,0,0,0,0,472,0.679167,0.165484
243,SDQ,,Santo Domingo,DOMINICAN REPUBLIC,Santo Domingo Las Americas International Airport,18.429661,-69.6689,3,0,3,24,0,24,0,0,0,0,8,0,471,1,0.037272
244,RMF,,Marsa Alam,EGYPT,Marsa Alam International Airport,25.55711,34.58371,19,0,19,54,0,54,0,0,0,0,0,0,367,0.532164,0.16244
245,AJA,,Ajaccio,FRANCE,Ajaccio Napoleon Bonaparte Airport,41.923882,8.8025,21,26,47,198,200,398,4,0.40747,0.434089,64.316222,5,0,724,0.427692,0.160554
246,BIA,,Bastia,FRANCE,Bastia Poretta Airport,42.549999,9.484722,29,33,62,177,188,365,4,0.426064,0.45357,102.753054,5,0,724,0.458333,0.247502
247,BOD,,Bordeaux,FRANCE,Bordeaux Merignac Airport,44.828609,-0.71527,73,85,158,666,699,1365,3,0.475514,0.512015,459.731528,5,0,724,0.472269,0.606521
248,FSC,,Figari,FRANCE,Figari Sud-Corse Airport,41.50222,9.096667,17,21,38,102,108,210,4,0.390587,0.41495,59.051231,5,0,724,0.428571,0.11548
249,SXB,,Strasbourg,FRANCE,Strasbourg Airport,48.54361,7.637222,22,35,57,157,183,340,4,0.402237,0.432458,48.577831,5,0,724,0.377311,0.152627
250,LDE,,Tarbes,FRANCE,Tarbes-Lourdes-Pyrenees Airport,43.185551,-0.00277,7,0,7,44,0,44,0,0,0,0,5,0,470,0.5,0.062001
251,ACC,,Accra,GHANA,Accra Kotoka International Airport,5.605186,-0.16678,7,0,7,39,0,39,0,0,0,0,4,0,366,0.833333,0.072919
252,KLX,,Kalamata,GREECE,Kalamata International Airport,37.06831,22.02552,11,0,11,19,0,19,0,0,0,0,6,0,365,0.863636,0.118656
253,JMK,,Mykonos,GREECE,Mykonos Island National Airport,37.43512,25.348101,21,21,42,129,129,258,4,0.415135,0.44001,7.756777,6,0,724,0.781385,0.215799
254,MJT,,Mytilene,GREECE,Mytilene International Airport,39.05666,26.59833,8,0,8,43,0,43,0,0,0,0,6,0,364,0.875,0.0876
564,GPA,,Patras,GREECE,Patras Araxos Airport,38.151112,21.42555,6,0,6,6,0,6,0,0,0,0,0,0,325,0.8,0.060231
255,VOL,,Volos,GREECE,Volos Nea Anchialos National Airport,39.219608,22.794331,3,0,3,5,0,5,0,0,0,0,0,0,362,1,0.039211
256,ZTH,,Zakynthos,GREECE,Zakynthos International Airport,37.750851,20.884251,33,35,68,131,129,260,4,0.430408,0.45829,97.544152,8,0,724,0.443694,0.290447
257,KEF,,Reykjavik,ICELAND,Keflavik International Airport,63.985001,-22.605499,47,73,120,433,637,1070,4,0.453315,0.490817,1723.416271,4,0,724,0.290633,0.411118
258,BOM,,Mumbai,INDIA,Mumbai Chhatrapati Shivaji International Airport,19.08868,72.867912,9,0,9,129,0,129,0,0,0,0,4,0,361,1,0.105811
121,BDS,,Brindisi,ITALY,Brindisi Airport,40.657631,17.947029,23,23,46,184,184,368,4,0.403239,0.428768,16.8647,1,0,724,0.5,0.199776
259,LIN,,Milan,ITALY,Milan Linate Airport,45.445099,9.276739,35,37,72,1043,1073,2116,3,0.436404,0.464126,225.916471,1,0,724,0.533784,0.289226
261,CUN,,Cancun,MEXICO,Cancun International Airport,21.03652,-86.876999,19,0,19,65,0,65,0,0,0,0,8,0,294,0.722222,0.194013
262,TIV,,Tivat,MONTENEGRO,Tivat Airport,42.404659,18.72328,14,16,30,85,92,177,4,0.421258,0.44413,28.299774,0,0,724,0.458333,0.116231
263,AGA,,Agadir,MOROCCO,Agadir Al Massira Airport,30.324989,-9.41306,32,0,32,101,0,101,0,0,0,0,5,0,258,0.491935,0.269605
264,CMN,,Casablanca,MOROCCO,Casablanca Mohammed V International Airport,33.367458,-7.58996,44,0,44,421,0,421,0,0,0,0,5,0,217,0.688689,0.391256
265,FEZ,,Fes,MOROCCO,Fes Saiss Airport,33.927261,-4.97795,27,0,27,95,0,95,0,0,0,0,5,0,250,0.522792,0.209493
266,RBA,,Rabat,MOROCCO,Rabat-Sale Airport,34.05146,-6.75151,12,0,12,69,0,69,0,0,0,0,5,0,259,0.439394,0.093474
267,TNG,,Tangier,MOROCCO,Tangier Ibn Battouta Airport,35.72691,-5.91688,16,0,16,89,0,89,0,0,0,0,8,0,312,0.5375,0.138475
268,PDL,,Ponta Delgada,PORTUGAL,Ponta Delgada Joao Paulo II Airport,37.74118,-25.6978,12,22,34,101,217,318,4,0.401572,0.427137,643.283369,5,0,724,0.248918,0.112129
269,BCM,,Bacau,ROMANIA,Bacau International Airport,46.521938,26.910271,10,0,10,43,0,43,0,0,0,0,1,0,226,0.711111,0.091273
270,KGL,,Kigali,RWANDA,Kigali Airport,-1.96862,30.13945,3,0,3,26,0,26,0,0,0,0,2,0,360,1,0.035713
271,JED,,Jeddah,SAUDI ARABIA,Jeddah King Abdulaziz International Airport,21.67956,39.156528,20,0,20,176,0,176,0,0,0,0,2,0,102,0.676316,0.172104
272,RUH,,Riyadh,SAUDI ARABIA,Riyadh King Khalid International Airport,24.95764,46.698769,13,0,13,102,0,102,0,0,0,0,2,0,248,0.826923,0.129364
273,DSS,,Dakar,SENEGAL,Dakar Blaise Diagne International Airport,14.671111,-17.066944,12,0,12,59,0,59,0,0,0,0,5,0,252,0.80303,0.118414
274,FNA,,Freetown,SIERRA LEONE,Freetown Lungi International Airport,8.616444,-13.1954,3,0,3,12,0,12,0,0,0,0,0,0,330,1,0.038262
275,JNB,,Johannesburg,SOUTH AFRICA,Johannesburg OR Tambo International Airport,-26.139099,28.246,11,0,11,104,0,104,0,0,0,0,4,0,247,0.981818,0.125476
276,LEI,,Almeria,SPAIN,Almeria Airport,36.843929,-2.37009,25,23,48,117,115,232,4,0.414957,0.439839,26.129039,8,0,724,0.58,0.230003
277,XRY,,Jerez,SPAIN,Jerez Airport,36.744621,-6.06011,17,18,35,105,106,211,4,0.408155,0.432029,21.569047,8,0,724,0.611111,0.162262
278,SPC,,La Palma,SPAIN,La Palma Airport,28.626471,-17.7556,13,0,13,241,0,241,0,0,0,0,8,0,286,0.801282,0.137306
279,ACE,,Lanzarote,SPAIN,Lanzarote Airport,28.945459,-13.6052,61,64,125,528,534,1062,4,0.440563,0.477171,286.730347,8,0,724,0.440326,0.496517
155,MAH,,Mahon,SPAIN,Mahon Menorca Airport,39.862591,4.218647,45,49,94,294,306,600,3,0.435231,0.467216,224.54864,8,0,724,0.466063,0.383593
280,REU,,Reus,SPAIN,Reus Airport,41.147388,1.167172,23,25,48,81,83,164,4,0.3973,0.424133,26.467343,4,0,724,0.428333,0.17795
281,SCQ,,Santiago,SPAIN,Santiago de Compostela Airport,42.896332,-8.41514,29,29,58,210,210,420,4,0.422909,0.449279,29.27769,8,0,724,0.814039,0.279723
282,SVQ,,Seville,SPAIN,Seville San Pablo Airport,37.417999,-5.8931,58,65,123,489,510,999,4,0.441364,0.478287,316.865079,8,0,724,0.496154,0.483199
283,VLC,,Valencia,SPAIN,Valencia Airport,39.489311,-0.48162,68,77,145,650,698,1348,4,0.470446,0.505664,497.841447,8,0,724,0.492674,0.564273
593,JKG,,Jonkoping,SWEDEN,Jonkoping Airport,57.757591,14.06873,4,0,4,40,0,40,0,0,0,0,7,0,284,1,0.043135
284,BMA,,Stockholm,SWEDEN,Stockholm Bromma Airport,59.35437,17.94165,5,15,20,214,509,723,4,0.364353,0.38414,527.447604,7,0,724,0.085714,0.031838
285,NBE,,Enfidha,TUNISIA,Enfidha – Hammamet International Airport,36.091946,10.413889,14,0,14,32,0,32,0,0,0,0,8,0,128,0.318681,0.112384
286,BJV,,Bodrum,TURKEY,Bodrum Milas Airport,37.25061,27.66431,32,33,65,246,247,493,4,0.443177,0.468847,152.086532,2,0,724,0.5,0.264308
213,DWC,,Dubai,UNITED ARAB EMIRATES,Dubai World Central International Airport,24.88611,55.172222,28,0,28,74,0,74,0,0,0,0,0,0,56,0.599206,0.243986
287,EMA,,East Midlands,UNITED KINGDOM,East Midlands Airport,52.831108,-1.32805,62,72,134,468,495,963,3,0.436797,0.476485,553.951709,8,0,724,0.280637,0.451231
288,NCL,,Newcastle,UNITED KINGDOM,Newcastle Airport,55.037498,-1.69166,59,67,126,493,518,1011,3,0.436797,0.474768,309.230212,8,0,724,0.292402,0.417176
289,ATL,,Atlanta,UNITED STATES,Atlanta Hartsfield-Jackson International Airport,33.636719,-84.428001,18,0,18,210,0,210,0,0,0,0,4,0,1,0.797386,0.190518
290,CVG,,Cincinnati,UNITED STATES,Cincinnati Northern Kentucky International Airport,39.048828,-84.667801,4,0,4,22,0,22,0,0,0,0,0,0,328,0.666667,0.033742
291,LCK,,Columbus,UNITED STATES,Columbus Rickenbacker International Airport,39.813782,-82.927803,4,0,4,7,0,7,0,0,0,0,0,0,127,0.666667,0.037755
292,CZL,,Constantine,ALGERIA,Constantine Mohamed Boudiaf International Airport,36.27602,6.620386,9,0,9,46,0,46,0,0,0,0,5,0,453,0.611111,0.071534
293,ORN,,Oran,ALGERIA,Oran Es Senia Airport,35.623852,-0.62118,14,0,14,103,0,103,0,0,0,0,5,0,452,0.730769,0.115802
294,PDV,,Plovdiv,BULGARIA,Plovdiv Airport,42.067799,24.85083,4,0,4,10,0,10,0,0,0,0,8,0,451,0.5,0.030245
295,PUY,,Pula,CROATIA,Pula Airport,44.893532,13.92219,21,23,44,56,58,114,4,0.423647,0.447992,79.135594,0,0,724,0.371542,0.171062
296,EGC,,Bergerac,FRANCE,Bergerac Dordogne Perigord Airport,44.824429,0.520525,8,9,17,35,36,71,4,0.348779,0.370409,7.933258,8,0,724,0.041667,0.047015
297,BIQ,,Biarritz,FRANCE,Biarritz Pays Basque Airport,43.46833,-1.53111,13,13,26,120,120,240,4,0.399424,0.42173,11.132803,5,0,724,0.641026,0.109969
298,CCF,,Carcassonne,FRANCE,Carcassonne Airport,43.215809,2.308544,8,0,8,31,0,31,0,0,0,0,8,0,389,0.732143,0.073415
299,LRH,,La Rochelle,FRANCE,La Rochelle Ile de Re Airport,46.179211,-1.19523,6,0,6,22,0,22,0,0,0,0,5,0,388,0.533333,0.046921
300,MPL,,Montpellier,FRANCE,Montpellier Mediterranee Airport,43.583328,3.961389,17,23,40,180,200,380,4,0.402905,0.428253,40.631057,5,0,724,0.381423,0.118864
301,FNI,,Nimes,FRANCE,Nimes Ales Camargue Cevennes Airport,43.7575,4.416389,3,0,3,14,0,14,0,0,0,0,8,0,387,0,0.028036
302,PGF,,Perpignan,FRANCE,Perpignan Rivesaltes Airport,42.740829,2.869722,7,0,7,44,0,44,0,0,0,0,5,0,373,0.47619,0.066137
303,RDZ,,Rodez,FRANCE,Rodez Marcillac Airport,44.407501,2.483333,2,0,2,19,0,19,0,0,0,0,5,0,386,0,0.013925
304,TLN,,Toulon,FRANCE,Toulon-Hyeres Airport,43.09734,6.146031,6,6,12,74,74,148,4,0.383946,0.402077,6.111353,5,0,724,0.333333,0.042926
305,AHO,,Alghero,ITALY,Alghero Fertilia Airport,40.63213,8.290772,28,27,55,121,122,243,4,0.417814,0.444387,79.802647,1,0,724,0.498768,0.235343
306,CAG,,Cagliari,ITALY,Cagliari Elmas Airport,39.251461,9.054283,46,48,94,317,324,641,4,0.424945,0.458462,418.255692,1,0,724,0.444303,0.364976
307,CIY,,Comiso,ITALY,Comiso Airport,36.990002,14.6,10,11,21,34,34,68,4,0.391374,0.412719,8.777171,1,0,724,0.427273,0.076649
308,PSR,,Pescara,ITALY,Pescara Abruzzo International Airport,42.431648,14.18106,12,12,24,61,61,122,4,0.367108,0.385771,4.950814,1,0,724,0.5,0.077905
309,CIA,,Rome,ITALY,Rome Ciampino Airport,41.799358,12.59493,46,52,98,359,379,738,4,0.414426,0.449365,217.867465,8,0,724,0.35181,0.313076
310,ESU,,Essaouira,MOROCCO,Essaouira Airport,31.397499,-9.681667,3,0,3,8,0,8,0,0,0,0,5,0,344,0,0.02363
311,OUD,,Oujda,MOROCCO,Oujda Angads Airport,34.787151,-1.92398,7,0,7,35,0,35,0,0,0,0,5,0,313,0.238095,0.04311
312,WMI,,Warsaw,POLAND,Warsaw Modlin Airport,52.451111,20.651667,48,49,97,204,206,410,4,0.414072,0.448249,186.794314,8,0,724,0.467262,0.348605
313,WRO,,Wroclaw,POLAND,Wroclaw Copernicus Airport,51.10268,16.88583,51,56,107,261,273,534,3,0.435621,0.469962,191.475186,0,0,724,0.428896,0.398816
314,CLJ,,Cluj-Napoca,ROMANIA,Cluj-Napoca International Airport,46.785091,23.68611,38,40,78,234,242,476,3,0.43079,0.460179,119.489821,0,0,724,0.488415,0.297527
315,TSR,,Timisoara,ROMANIA,Timisoara Traian Vuia International Airport,45.80986,21.33786,21,24,45,142,146,288,4,0.400412,0.426365,30.14076,0,0,724,0.543333,0.15663
316,BTS,,Bratislava,SLOVAKIA,Bratislava M. R. Stefanik Airport,48.170158,17.21266,31,37,68,114,132,246,4,0.416024,0.446361,260.841775,8,0,724,0.340841,0.225171
317,SDR,,Santander,SPAIN,Santander Airport,43.427059,-3.82,17,18,35,102,103,205,4,0.392323,0.416066,5.347343,8,0,724,0.74183,0.158502
318,NYO,,Stockholm,SWEDEN,Stockholm Skavsta Airport,58.788631,16.91218,36,40,76,160,167,327,4,0.390744,0.421215,154.46559,8,0,724,0.336538,0.234193
319,GLA,,Glasgow,UNITED KINGDOM,Glasgow International Airport,55.871941,-4.43305,69,97,166,807,1012,1819,4,0.456512,0.501716,2137.435749,4,0,724,0.260846,0.531903
320,GRU,,Sao Paulo,BRAZIL,Sao Paulo Guarulhos International Airport,-23.431999,-46.469501,15,0,15,166,0,166,0,0,0,0,5,0,436,0.895238,0.155374
321,BGF,,Bangui,CENTRAL AFRICAN REPUBLIC,Bangui Airport,4.398475,18.51878,2,0,2,4,0,4,0,0,0,0,0,0,435,0.5,0.018085
322,CAN,,Guangzhou,CHINA,Guangzhou Baiyun International Airport,23.392429,113.298698,9,0,9,84,0,84,0,0,0,0,4,0,434,0.736111,0.081801
323,PNR,,Pointe Noire,CONGO,Pointe Noire Airport,-4.81602,11.88659,2,0,2,7,0,7,0,0,0,0,0,0,433,0.5,0.018085
603,BRQ,,Brno,CZECH REPUBLIC,Brno Turany Airport,49.15126,16.694429,4,5,9,26,30,56,4,0.372602,0.38989,0.391438,0,0,724,0.533333,0.041091
427,TKU,,Turku,FINLAND,Turku Airport,60.514141,22.2628,6,7,13,72,84,156,4,0.364489,0.379849,3.397579,7,0,724,0.714286,0.045714
438,RNS,,Rennes,FRANCE,Rennes Saint-Jacques Airport,48.071941,-1.73222,19,0,19,132,0,132,0,0,0,0,5,0,357,0.669591,0.13495
563,ERF,,Erfurt,GERMANY,Erfurt Weimar Airport,50.979809,10.9581,17,0,17,34,0,34,0,0,0,0,8,0,381,0.371324,0.132828
325,MEX,,Mexico City,MEXICO,Mexico City International Airport,19.4363,-99.071999,10,0,10,110,0,110,0,0,0,0,8,0,293,0.755556,0.099802
326,NIM,,Niamey,NIGER,Niamey Diori Hamani International Airport,13.48154,2.183614,3,0,3,12,0,12,0,0,0,0,0,0,335,0.5,0.027982
327,LOS,,Lagos,NIGERIA,Lagos Murtala Mohammed Airport,6.577369,3.321156,9,0,9,63,0,63,0,0,0,0,4,0,256,0.777778,0.093303
328,PHC,,Port Harcourt,NIGERIA,Port Harcourt International Airport,5.015494,6.949594,2,0,2,2,0,2,0,0,0,0,0,0,394,0,0.012931
718,OLA,,Brekstad,NORWAY,Brekstad Orland Airport,63.698898,9.604003,2,0,2,27,0,27,0,0,0,0,7,0,393,0.5,0.014599
366,KTW,,Katowice,POLAND,Katowice International Airport,50.474251,19.080009,52,64,116,245,275,520,3,0.440363,0.476828,439.96853,0,0,724,0.312004,0.387939
329,KRT,,Khartoum,SUDAN,Khartoum International Airport,15.58949,32.553162,2,0,2,11,0,11,0,0,0,0,2,0,392,0,0.015536
330,MMX,,Malmo,SWEDEN,Malmo Airport,55.53019,13.37163,26,32,58,238,268,506,3,0.413367,0.441126,359.075006,7,0,724,0.315341,0.165011
398,ORB,,Orebro,SWEDEN,Orebro Airport,59.223728,15.03795,7,0,7,41,0,41,0,0,0,0,7,0,119,0.809524,0.053672
331,ASR,,Kayseri,TURKEY,Kayseri Erkilet International Airport,38.770378,35.495419,10,0,10,138,0,138,0,0,0,0,2,0,84,0.766667,0.089564
462,OST,,Ostend,BELGIUM,Ostend Bruges International Airport,51.198879,2.862222,11,15,26,30,41,71,4,0.386545,0.407741,254.301131,8,0,724,0.205882,0.09726
335,AOE,,Eskisehir,TURKEY,Eskisehir Airport,39.811401,30.527,1,0,1,2,0,2,0,0,0,0,8,0,484,0,0.001441
336,DTM,,Dortmund,GERMANY,Dortmund Airport,51.518311,7.612242,27,32,59,148,159,307,4,0.393915,0.421816,116.890105,0,0,724,0.242944,0.1767
337,FDH,,Friedrichshafen,GERMANY,Friedrichshafen Airport,47.67131,9.511486,15,16,31,64,66,130,4,0.407983,0.431171,41.566792,0,0,724,0.241667,0.110777
338,FMM,,Memmingen,GERMANY,Memmingen Airport,47.988609,10.239444,30,34,64,88,99,187,4,0.401738,0.430913,228.639055,8,0,724,0.164884,0.173139
339,EIN,,Eindhoven,NETHERLANDS,Eindhoven Airport,51.45013,5.374528,63,69,132,407,431,838,4,0.430217,0.469791,443.955028,8,0,724,0.345482,0.461853
340,VXO,,Vaxjo,SWEDEN,Vaxjo Smaland Airport,56.929138,14.72799,9,0,9,37,0,37,0,0,0,0,7,0,111,0.166667,0.05303
341,NRN,,Weeze,GERMANY,Weeze Airport,51.602409,6.142172,34,45,79,130,155,285,4,0.385317,0.417439,239.740124,8,0,724,0.170707,0.210626
342,KUN,,Kaunas,LITHUANIA,Kaunas Airport,54.963909,24.08477,18,19,37,64,65,129,4,0.384098,0.40714,48.568328,8,0,724,0.44152,0.130515
343,RZE,,Rzeszow,POLAND,Rzeszow Jasionka Airport,50.109951,22.018999,12,0,12,82,0,82,0,0,0,0,0,0,320,0.454545,0.105517
369,CWL,,Cardiff,UNITED KINGDOM,Cardiff Airport,51.396469,-3.33753,36,39,75,192,212,404,4,0.422541,0.452455,326.067313,4,0,724,0.425776,0.282692
344,BVA,,Paris,FRANCE,Paris Beauvais-Tille Airport,49.454441,2.112778,45,53,98,236,264,500,4,0.400578,0.436062,282.512857,8,0,724,0.267417,0.27932
345,FKB,,Karlsruhe/Baden-Baden,GERMANY,Karlsruhe/Baden-Baden Airport,48.77935,8.0805,25,26,51,98,101,199,4,0.427189,0.452283,137.392485,8,0,724,0.34188,0.180874
346,CDT,,Castellon,SPAIN,Castellon Costa Azahar Airport,40.209721,0.069722,3,0,3,8,0,8,0,0,0,0,0,0,223,0.666667,0.022692
347,LPL,,Liverpool,UNITED KINGDOM,Liverpool John Lennon Airport,53.333611,-2.84972,53,59,112,355,405,760,4,0.424388,0.461208,340.954753,8,0,724,0.355932,0.404228
348,CND,,Constanta,ROMANIA,Constanta International Airport,44.362221,28.488331,3,0,3,9,0,9,0,0,0,0,0,0,356,1,0.023202
349,OSI,,Osijek,CROATIA,Osijek Airport,45.462662,18.81015,6,0,6,18,0,18,0,0,0,0,0,0,411,0.566667,0.037857
350,DOL,,Deauville,FRANCE,Deauville Saint Gatien Airport,49.363331,0.16,9,0,9,12,0,12,0,0,0,0,5,0,410,0.430556,0.0613
351,BGO,,Bergen,NORWAY,Bergen Flesland Airport,60.293381,5.218142,39,50,89,631,759,1390,3,0.439367,0.471164,1093.913512,7,0,724,0.338776,0.292792
352,TRD,,Trondheim,NORWAY,Trondheim Vaernes Airport,63.45755,10.92425,24,32,56,408,527,935,4,0.405428,0.433831,804.921683,7,0,724,0.344758,0.170178
353,BFS,,Belfast,UNITED KINGDOM,Belfast International Airport,54.657501,-6.21583,49,52,101,481,491,972,4,0.428887,0.462753,159.719312,8,0,724,0.455505,0.378627
354,DSA,,Doncaster,UNITED KINGDOM,Doncaster Sheffield Airport,53.47472,-1.00444,32,0,32,101,0,101,0,0,0,0,8,0,51,0.336694,0.235654
356,LBA,,Leeds,UNITED KINGDOM,Leeds Bradford Airport,53.865891,-1.66056,58,61,119,366,373,739,4,0.431747,0.468417,278.211003,4,0,724,0.275137,0.407831
357,SVG,,Stavanger,NORWAY,Stavanger Sola Airport,58.87677,5.637856,29,31,60,462,483,945,4,0.413016,0.440954,219.507181,7,0,724,0.496976,0.21919
359,RJK,,Rijeka,CROATIA,Rijeka Airport,45.216881,14.57026,8,0,8,17,0,17,0,0,0,0,0,0,427,0.607143,0.072301
360,LIL,,Lille,FRANCE,Lille Airport,50.563332,3.086944,35,45,80,210,227,437,4,0.404752,0.438036,126.452679,5,0,724,0.321739,0.232427
880,KLR,,Kalmar,SWEDEN,Kalmar Airport,56.685532,16.287571,5,0,5,51,0,51,0,0,0,0,7,0,308,0.3,0.035554
361,OMO,,Mostar,BOSNIA AND HERZEGOVINA,Mostar International Airport,43.282902,17.845869,2,0,2,3,0,3,0,0,0,0,0,0,429,1,0.01588
362,BAH,,Bahrain,BAHRAIN,Bahrain International Airport,26.27083,50.63361,13,0,13,101,0,101,0,0,0,0,2,0,426,0.551282,0.090743
363,KUT,,Kutaisi,GEORGIA,Kutaisi International Airport,42.169998,42.48,14,0,14,36,0,36,0,0,0,0,0,0,402,0.549451,0.102169
365,IOA,,Ioannina,GREECE,Ioannina National Airport,39.696381,20.8225,2,0,2,15,0,15,0,0,0,0,6,0,403,1,0.017868
367,KSD,,Karlstad,SWEDEN,Karlstad Airport,59.44471,13.33736,4,0,4,19,0,19,0,0,0,0,7,0,307,0.5,0.035913
370,EXT,,Exeter,UNITED KINGDOM,Exeter International Airport,50.73444,-3.41388,24,0,24,125,0,125,0,0,0,0,4,0,48,0.519928,0.18448
371,AAR,,Aarhus,DENMARK,Aarhus Airport,56.300011,10.619,13,13,26,112,110,222,4,0.394876,0.416409,62.205326,7,0,724,0.641026,0.114233
372,DRS,,Dresden,GERMANY,Dresden Airport,51.132759,13.76716,28,32,60,208,215,423,4,0.42569,0.453656,105.99207,0,0,724,0.450605,0.238534
373,BOH,,Bournemouth,UNITED KINGDOM,Bournemouth Airport,50.779999,-1.8425,17,0,17,56,0,56,0,0,0,0,8,0,110,0.231618,0.129732
374,NWI,,Norwich,UNITED KINGDOM,Norwich International Airport,52.675831,1.282778,16,0,16,106,0,106,0,0,0,0,4,0,37,0.529167,0.130904
375,CTU,,Chengdu,CHINA,Chengdu Shuangliu International Airport,30.57852,103.946999,8,0,8,29,0,29,0,0,0,0,3,0,431,0.875,0.077349
376,XIY,,Xi'an,CHINA,Xi'an Xianyang International Airport,34.447109,108.751503,8,0,8,21,0,21,0,0,0,0,3,0,430,0.821429,0.066745
377,KLV,,Karlovy Vary,CZECH REPUBLIC,Karlovy Vary Airport,50.202969,12.91498,3,0,3,6,0,6,0,0,0,0,3,0,400,0.333333,0.021129
379,OSR,,Ostrava,CZECH REPUBLIC,Ostrava Leos Janacek Airport,49.696289,18.11105,3,0,3,15,0,15,0,0,0,0,0,0,399,1,0.030131
380,TPS,,Trapani,ITALY,Trapani Birgi Airport,37.9114,12.48796,9,12,21,35,68,103,4,0.381083,0.401991,23.463217,1,0,724,0.237179,0.049276
381,PHL,,Philadelphia,UNITED STATES,Philadelphia International Airport,39.871941,-75.241096,18,0,18,176,0,176,0,0,0,0,4,0,3,0.882353,0.192502
383,AAL,,Aalborg,DENMARK,Aalborg Airport,57.092781,9.849164,15,18,33,177,183,360,4,0.412665,0.435805,24.006602,7,0,724,0.591503,0.141597
382,RNN,,Ronne,DENMARK,Bornholm Airport,55.063259,14.75955,3,0,3,83,0,83,0,0,0,0,7,0,406,1,0.019025
385,FAE,,Vagar,FAROE ISLANDS,Vagar Airport,62.063622,-7.27721,5,0,5,37,0,37,0,0,0,0,7,0,405,0.8,0.04517
386,PVK,,Preveza,GREECE,Aktion National Airport,38.925461,20.76531,15,0,15,32,0,32,0,0,0,0,7,0,327,0.77619,0.154244
387,POZ,,Poznan,POLAND,Poznan Lawica Airport,52.421028,16.826321,30,37,67,163,179,342,3,0.424017,0.452969,109.473291,0,0,724,0.372372,0.235768
389,KRP,,Karup,DENMARK,Karup Midtjyllands Airport,56.297451,9.124628,4,0,4,92,0,92,0,0,0,0,7,0,467,0.916667,0.048018
390,SGD,,Sonderborg,DENMARK,Sonderborg Airport,54.964359,9.791731,3,0,3,52,0,52,0,0,0,0,7,0,466,0.666667,0.028771
583,JSI,,Skiathos,GREECE,Skiathos Island National Airport,39.177101,23.50367,13,0,13,33,0,33,0,0,0,0,8,0,371,0.551282,0.132199
391,SFJ,,Kangerlussuaq,GREENLAND,Kangerlussuaq Airport,67.01696,-50.689301,1,0,1,5,0,5,0,0,0,0,7,0,370,0,0.011652
392,PLQ,,Palanga,LITHUANIA,Palanga International Airport,55.973221,21.093849,7,0,7,47,0,47,0,0,0,0,7,0,261,0.714286,0.067429
393,GRQ,,Groningen,NETHERLANDS,Groningen Airport Eelde,53.11972,6.579444,8,8,16,56,56,112,4,0.378853,0.397185,2.627121,4,0,724,0.527778,0.070896
394,KRS,,Kristiansand,NORWAY,Kristiansand Kjevik Airport,58.204208,8.085369,9,9,18,152,152,304,4,0.383491,0.403622,0.090645,7,0,724,0.972222,0.069937
395,TRF,,Oslo,NORWAY,Oslo Sandefjord Airport,59.186699,10.25862,24,26,50,226,232,458,4,0.404078,0.430227,41.68859,7,0,724,0.492308,0.187275
396,TOS,,Tromso,NORWAY,Tromso Airport,69.683327,18.918909,9,21,30,160,353,513,4,0.371461,0.394181,1482.884131,7,0,724,0.15,0.053719
397,LHE,,Lahore,PAKISTAN,Lahore Allama Iqbal International Airport,31.521561,74.403587,6,0,6,16,0,16,0,0,0,0,2,0,333,1,0.06746
399,GZP,,Gazipasa,TURKEY,Gazipasa Airport,36.299,32.299999,14,0,14,81,0,81,0,0,0,0,2,0,89,0.489011,0.099148
400,KYA,,Konya,TURKEY,Konya Airport,37.979,32.561859,4,0,4,78,0,78,0,0,0,0,2,0,83,0.916667,0.031191
401,ABZ,,Aberdeen,UNITED KINGDOM,Aberdeen International Airport,57.201939,-2.19777,32,39,71,374,500,874,4,0.419983,0.450137,452.187099,4,0,724,0.375843,0.248125
402,BOS,,Boston,UNITED STATES,Boston Logan International Airport,42.362968,-71.006401,17,0,17,208,0,208,0,0,0,0,4,0,34,0.790441,0.17379
403,FLL,,Fort Lauderdale,UNITED STATES,Fort Lauderdale Hollywood International Airport,26.07258,-80.152702,6,0,6,18,0,18,0,0,0,0,8,0,46,1,0.067589
404,OAK,,Oakland,UNITED STATES,Oakland International Airport,37.721272,-122.220001,7,0,7,32,0,32,0,0,0,0,8,0,45,1,0.07873
405,MCO,,Orlando,UNITED STATES,Orlando International Airport,28.42939,-81.308899,12,0,12,89,0,89,0,0,0,0,4,0,5,0.840909,0.12381
406,SFO,,San Francisco,UNITED STATES,San Francisco International Airport,37.618969,-122.374001,14,0,14,170,0,170,0,0,0,0,4,0,15,0.912088,0.15107
407,KDL,,Kardla,ESTONIA,Kardla Airport,58.990749,22.83073,1,0,1,28,0,28,0,0,0,0,7,0,397,0,0.0051
408,URE,,Kuressaare,ESTONIA,Kuressaare Airport,58.229881,22.509489,1,0,1,28,0,28,0,0,0,0,7,0,396,0,0.0051
409,BRE,,Bremen,GERMANY,Bremen Airport,53.047501,8.786667,37,40,77,273,280,553,4,0.445005,0.472709,193.113574,0,0,724,0.430128,0.303412
410,CKG,,Chongqing,CHINA,Chongqing Jiangbei International Airport,29.71921,106.641602,6,0,6,20,0,20,0,0,0,0,7,0,450,0.8,0.059825
411,NKG,,Nanjing,CHINA,Nanjing Lukou International Airport,31.742041,118.862,3,0,3,9,0,9,0,0,0,0,0,0,449,1,0.032663
412,TAY,,Tartu,ESTONIA,Tartu Airport,58.307461,26.69042,1,0,1,7,0,7,0,0,0,0,7,0,448,0,0.008747
413,IVL,,Ivalo,FINLAND,Ivalo Airport,68.607262,27.405319,1,0,1,8,0,8,0,0,0,0,7,0,447,0,0.008747
414,JOE,,Joensuu,FINLAND,Joensuu Airport,62.662899,29.60755,2,0,2,29,0,29,0,0,0,0,7,0,446,1,0.016344
415,JYV,,Jyvaskyla,FINLAND,Jyvaskyla Airport,62.399448,25.678249,2,0,2,15,0,15,0,0,0,0,7,0,445,1,0.016344
416,KAJ,,Kajaani,FINLAND,Kajaani Airport,64.285469,27.69241,2,0,2,27,0,27,0,0,0,0,7,0,444,0,0.010382
417,KEM,,Kemi,FINLAND,Kemi Tornio Airport,65.781883,24.5991,1,0,1,21,0,21,0,0,0,0,7,0,443,0,0.008747
418,KOK,,Kokkola,FINLAND,Kokkola-Pietarsaari Airport,63.721169,23.143129,3,0,3,32,0,32,0,0,0,0,7,0,442,0.666667,0.026508
419,KUO,,Kuopio,FINLAND,Kuopio Airport,63.007149,27.79775,2,0,2,43,0,43,0,0,0,0,7,0,441,1,0.016344
420,KAO,,Kuusamo,FINLAND,Kuusamo Airport,65.987572,29.23938,1,0,1,6,0,6,0,0,0,0,7,0,440,0,0.008747
421,MHQ,,Mariehamn,FINLAND,Mariehamn Airport,60.1222,19.898149,3,0,3,29,0,29,0,0,0,0,7,0,391,1,0.019651
422,OUL,,Oulu,FINLAND,Oulu Airport,64.929161,25.355551,4,4,8,105,106,211,4,0.360297,0.373241,16.615865,7,0,724,0.2,0.023053
423,POR,,Pori,FINLAND,Pori Airport,61.461681,21.79998,3,0,3,29,0,29,0,0,0,0,7,0,438,1,0.024735
424,RVN,,Rovaniemi,FINLAND,Rovaniemi Airport,66.561661,25.83083,1,2,3,37,38,75,4,0.356592,0.368606,0,7,0,724,1,0.008747
425,SVL,,Savonlinna,FINLAND,Savonlinna Airport,61.943062,28.945129,3,0,3,20,0,20,0,0,0,0,7,0,437,0.666667,0.023933
426,TMP,,Tampere,FINLAND,Tampere Pirkkala Airport,61.415272,23.58777,5,5,10,56,62,118,4,0.362178,0.376159,1.141386,7,0,724,0.7,0.042463
428,VAA,,Vaasa,FINLAND,Vaasa Airport,63.050652,21.762171,4,3,7,59,58,117,4,0.364763,0.37839,0.070394,7,0,724,0.833333,0.034085
429,FUK,,Fukuoka,JAPAN,Fukuoka Airport,33.585941,130.450607,1,0,1,3,0,3,0,0,0,0,7,0,390,0,0.008747
430,NGO,,Nagoya,JAPAN,Nagoya Chubu Centrair International Airport,34.85841,136.805405,2,0,2,14,0,14,0,0,0,0,7,0,303,1,0.022017
431,MMK,,Murmansk,RUSSIA,Murmansk Airport,68.78167,32.75082,6,0,6,80,0,80,0,0,0,0,3,0,189,0.666667,0.037961
432,UME,,Umea,SWEDEN,Umea Airport,63.791821,20.282749,4,0,4,148,0,148,0,0,0,0,7,0,114,0.833333,0.026379
368,LLA,,Lulea,SWEDEN,Lulea Airport,65.543747,22.121981,3,0,3,104,0,104,0,0,0,0,7,0,439,0.333333,0.017516
433,BES,,Brest,FRANCE,Brest Bretagne Airport,48.44722,-4.42166,19,22,41,130,135,265,4,0.390273,0.415036,36.044194,5,0,724,0.480072,0.128594
434,CFR,,Caen,FRANCE,Caen Carpiquet Airport,49.173279,-0.44987,10,0,10,47,0,47,0,0,0,0,5,0,385,0.733333,0.050949
435,LIG,,Limoges,FRANCE,Limoges Bellegarde Airport,45.860828,1.180278,11,0,11,47,0,47,0,0,0,0,5,0,379,0.345455,0.075395
436,ETZ,,Metz-Nancy,FRANCE,Metz-Nancy-Lorraine Airport,48.978329,6.246667,12,0,12,51,0,51,0,0,0,0,5,0,376,0.598485,0.083009
437,PIS,,Poitiers,FRANCE,Poitiers – Biard Airport,46.587502,0.306667,3,0,3,17,0,17,0,0,0,0,5,0,378,0.666667,0.022176
439,QSF,,Setif,ALGERIA,Setif Ain Arnat Airport,36.17812,5.324494,4,0,4,17,0,17,0,0,0,0,5,0,454,0.666667,0.031438
440,HDF,,Heringsdorf,GERMANY,Heringsdorf Airport,53.87825,14.138242,4,0,4,4,0,4,0,0,0,0,0,0,384,0.833333,0.042389
441,GWT,,Sylt,GERMANY,Sylt Airport,54.91325,8.340472,6,0,6,21,0,21,0,0,0,0,0,0,383,0.733333,0.067485
442,OHD,,Ohrid,MACEDONIA,Ohrid Airport,41.179951,20.742319,5,0,5,11,0,11,0,0,0,0,8,0,382,0.9,0.053126
443,INI,,Nis,SERBIA,Nis Constantine the Great Airport,43.33728,21.85372,10,10,20,21,21,42,4,0.366001,0.383883,8.631311,8,0,724,0.177778,0.054756
444,SOU,,Southampton,UNITED KINGDOM,Southampton Airport,50.95026,-1.3568,20,25,45,346,411,757,4,0.403407,0.429797,327.013709,4,0,724,0.415,0.15721
445,CLY,,Calvi,FRANCE,Calvi Sainte-Catherine Airport,42.520359,8.793028,12,0,12,54,0,54,0,0,0,0,5,0,457,0.681818,0.096732
446,SIR,,Sion,SWITZERLAND,Sion Airport,46.219589,7.326764,3,0,3,6,0,6,0,0,0,0,5,0,380,0.333333,0.015461
447,AAE,,Annaba,ALGERIA,Annaba Rabah Bitat Airport,36.82222,7.809167,5,0,5,20,0,20,0,0,0,0,5,0,463,0.8,0.045128
448,BLJ,,Batna,ALGERIA,Batna International Airport,35.759167,6.3225,3,0,3,4,0,4,0,0,0,0,5,0,462,1,0.022785
449,BJA,,Bejaia,ALGERIA,Bejaia Soummam Airport,36.71199,5.069922,3,0,3,17,0,17,0,0,0,0,5,0,461,1,0.022785
450,BSK,,Biskra,ALGERIA,Biskra Airport,34.793282,5.738231,3,0,3,3,0,3,0,0,0,0,5,0,460,0.666667,0.027915
451,TLM,,Tlemcen,ALGERIA,Tlemcen Zenata Airport,35.016659,-1.45,4,0,4,13,0,13,0,0,0,0,5,0,459,1,0.032187
452,BVE,,Brive,FRANCE,Brive Souillac Airport,45.040031,1.487762,3,0,3,22,0,22,0,0,0,0,5,0,458,0.333333,0.026809
453,CFE,,Clermont-Ferrand,FRANCE,Clermont-Ferrand Auvergne Airport,45.785831,3.1625,8,0,8,74,0,74,0,0,0,0,5,0,456,0.839286,0.075523
454,PUF,,Pau,FRANCE,Pau Pyrenees Airport,43.380001,-0.41861,6,0,6,96,0,96,0,0,0,0,5,0,374,0.933333,0.050803
455,URO,,Rouen,FRANCE,Rouen Airport,49.390831,1.183889,1,0,1,4,0,4,0,0,0,0,5,0,377,0,0.008536
456,RUN,,Saint-Denis,REUNION,Saint-Denis Roland Garros Airport,-20.889999,55.51638,5,0,5,42,0,42,0,0,0,0,5,0,331,0.9,0.042574
457,CFK,,Chlef,ALGERIA,Chlef International Airport,36.212223,1.331667,2,0,2,6,0,6,0,0,0,0,5,0,465,1,0.019762
458,HME,,Hassi Messaoud,ALGERIA,Hassi Messaoud Oued Irara Airport,31.67297,6.140444,1,0,1,3,0,3,0,0,0,0,5,0,464,0,0.007316
459,TUF,,Tours,FRANCE,Tours Val de Loire Airport,47.431938,0.723056,4,0,4,11,0,11,0,0,0,0,5,0,375,1,0.038056
460,TNR,,Antananarivo,MADAGASCAR,Antananarivo Ivato International Airport,-18.7969,47.478802,2,0,2,6,0,6,0,0,0,0,0,0,341,1,0.019762
461,SNR,,Saint Nazaire,FRANCE,Saint Nazaire Montoir Airport,47.310551,-2.15666,1,0,1,9,0,9,0,0,0,0,5,0,372,0,0.007009
463,CHR,,Chateauroux,FRANCE,Chateauroux Centre Marcel Dassault Airport,46.860271,1.721111,1,0,1,3,0,3,0,0,0,0,5,0,483,0,0.008563
464,EPL,,Epinal,FRANCE,Epinal Mirecourt Airport,48.325001,6.066742,1,0,1,3,0,3,0,0,0,0,5,0,482,0,0.008563
465,MCM,,Monte Carlo,MONACO,Monte Carlo Monaco Heliport,43.725552,7.420278,1,0,1,882,0,882,0,0,0,0,5,0,358,0,0.008563
468,BZR,,Beziers,FRANCE,Beziers Cap d'Agde Airport,43.323421,3.353397,8,0,8,26,0,26,0,0,0,0,8,0,455,0.321429,0.062457
469,DEB,,Debrecen,HUNGARY,Debrecen International Airport,47.488911,21.61533,8,9,17,28,31,59,4,0.383794,0.404222,14.072875,0,0,724,0.263889,0.049935
470,CRA,,Craiova,ROMANIA,Craiova International Airport,44.31813,23.888611,9,0,9,32,0,32,0,0,0,0,1,0,225,0.722222,0.076082
471,ELU,,El Oued,ALGERIA,El Oued Guemar Airport,33.511391,6.776794,1,0,1,1,0,1,0,0,0,0,0,0,524,0,0.012446
472,EZE,,Buenos Aires,ARGENTINA,Buenos Aires Ministro Pistarini International Airport,-34.822201,-58.535801,8,0,8,87,0,87,0,0,0,0,8,0,523,0.928571,0.095964
473,COO,,Cotonou,BENIN,Cotonou Cadjehoun Airport,6.357228,2.384353,2,0,2,13,0,13,0,0,0,0,2,0,522,1,0.022343
474,FOR,,Fortaleza,BRAZIL,Pinto Martins International Airport,-3.77628,-38.532501,4,0,4,11,0,11,0,0,0,0,5,0,521,1,0.049368
475,GIG,,Rio de Janeiro,BRAZIL,Rio de Janeiro Galeao International Airport,-22.808901,-43.243599,10,0,10,61,0,61,0,0,0,0,5,0,520,0.966667,0.107421
476,NSI,,Yaounde,CAMEROON,Yaounde Airport,3.722556,11.55326,2,0,2,8,0,8,0,0,0,0,2,0,519,1,0.022343
477,YQB,,Quebec,CANADA,Quebec City International Airport,46.791111,-71.393303,1,0,1,3,0,3,0,0,0,0,0,0,518,0,0.012446
478,YVR,,Vancouver,CANADA,Vancouver International Airport,49.193878,-123.183998,9,0,9,78,0,78,0,0,0,0,4,0,491,0.930556,0.097338
479,SID,,Espargos,CAPE VERDE,Espargos Amilcar Cabral International Airport,16.741381,-22.9494,11,0,11,32,0,32,0,0,0,0,5,0,517,0.772727,0.111295
480,VXE,,Sao Vicente,CAPE VERDE,Sao Vicente Cesaria Evora Airport,16.833679,-25.0546,3,0,3,8,0,8,0,0,0,0,5,0,516,1,0.036098
481,NDJ,,N'Djamena,CHAD,N'Djamena International Airport,12.13368,15.03401,1,0,1,4,0,4,0,0,0,0,0,0,515,0,0.012446
482,SCL,,Santiago,CHILE,Santiago International Airport,-33.392899,-70.785797,4,0,4,34,0,34,0,0,0,0,8,0,514,1,0.044625
483,KMG,,Kunming,CHINA,Kunming Changshui International Airport,25.101944,102.929169,2,0,2,6,0,6,0,0,0,0,3,0,513,1,0.020137
484,WUH,,Wuhan,CHINA,Wuhan Tianhe International Airport,30.783751,114.208099,4,0,4,19,0,19,0,0,0,0,0,0,512,0.833333,0.038571
485,BOG,,Bogota,COLOMBIA,Bogota El Dorado International Airport,4.703056,-74.138298,7,0,7,78,0,78,0,0,0,0,8,0,511,1,0.083459
486,BZV,,Brazzaville,CONGO,Brazzaville Maya Maya Airport,-4.2517,15.25303,1,0,1,5,0,5,0,0,0,0,0,0,510,0,0.012446
487,SJO,,San Jose,COSTA RICA,San Jose Juan Santamaria International Airport,9.993903,-84.208801,5,0,5,18,0,18,0,0,0,0,8,0,509,0.9,0.060035
488,HAV,,Havana,CUBA,Havana Jose Marti International Airport,22.989149,-82.408997,13,0,13,63,0,63,0,0,0,0,8,0,488,0.839744,0.142811
489,SNU,,Santa Clara,CUBA,Santa Clara Abel Santamaria Airport,22.492189,-79.943604,2,0,2,2,0,2,0,0,0,0,4,0,508,1,0.023634
490,JIB,,Djibouti,DJIBOUTI,Djibouti Ambouli International Airport,11.54733,43.159481,2,0,2,10,0,10,0,0,0,0,2,0,507,1,0.022343
491,LXR,,Luxor,EGYPT,Luxor International Airport,25.671021,32.706581,2,0,2,2,0,2,0,0,0,0,4,0,506,1,0.021606
324,LBV,,Libreville,GABON,Libreville International Airport,0.4586,9.412283,1,0,1,8,0,8,0,0,0,0,0,0,505,0,0.012446
492,PTP,,Pointe-a-Pitre,GUADELOUPE,Pointe-a-Pitre International Airport,16.26416,-61.525799,2,0,2,32,0,32,0,0,0,0,5,0,494,0,0.019379
494,MAA,,Chennai,INDIA,Chennai International Airport,12.99441,80.180511,4,0,4,24,0,24,0,0,0,0,0,0,504,1,0.044773
495,ORK,,Cork,IRELAND,Cork Airport,51.841381,-8.49111,26,28,54,197,206,403,4,0.41478,0.442156,40.416216,4,0,724,0.619048,0.23335
496,HND,,Tokyo,JAPAN,Tokyo Haneda International Airport,35.55225,139.779602,4,0,4,101,0,101,0,0,0,0,0,0,301,1,0.048271
497,BKO,,Bamako,MALI,Bamako Senou International Airport,12.53354,-7.94994,4,0,4,16,0,16,0,0,0,0,0,0,340,0.5,0.036569
498,FDF,,Fort-de-France,MARTINIQUE,Martinique Aime Cesaire International Airport,14.59222,-60.9963,2,0,2,26,0,26,0,0,0,0,5,0,339,0,0.019379
499,NKC,,Nouakchott,MAURITANIA,Nouakchott Oumtounsy International Airport,18.306103,-15.964665,3,0,3,17,0,17,0,0,0,0,2,0,338,0.666667,0.031528
500,MRU,,Port Louis,MAURITIUS,Port Louis Sir Seewoosagur Ramgoolam Airport,-20.430201,57.683601,9,0,9,30,0,30,0,0,0,0,0,0,295,0.652778,0.099712
501,DZA,,Dzaoudzi,MAYOTTE,Dzaoudzi Pamandzi International Airport,-12.8066,45.280548,1,0,1,4,0,4,0,0,0,0,0,0,337,0,0.012446
502,SXM,,Sint Maarten,NETHERLANDS,Sint Maarten Princess Juliana International Airport,18.040951,-63.108898,3,0,3,5,0,5,0,0,0,0,4,0,336,0.666667,0.03307
503,ABV,,Abuja,NIGERIA,Abuja Nnamdi Azikiwe International Airport,9.006792,7.263172,4,0,4,29,0,29,0,0,0,0,2,0,291,1,0.044773
504,MCT,,Muscat,OMAN,Muscat International Airport,23.593269,58.284439,9,0,9,77,0,77,0,0,0,0,4,0,255,1,0.098475
506,PTY,,Panama City,PANAMA,Panama City Tocumen International Airport,9.071364,-79.3834,4,0,4,28,0,28,0,0,0,0,0,0,290,1,0.051285
507,LIM,,Lima,PERU,Lima Jorge Chavez International Airport,-12.0218,-77.114304,5,0,5,48,0,48,0,0,0,0,8,0,332,1,0.062393
509,SEZ,,Victoria,SEYCHELLES,Victoria Seychelles International Airport,-4.67434,55.521832,4,0,4,11,0,11,0,0,0,0,2,0,288,1,0.044773
510,CPT,,Cape Town,SOUTH AFRICA,Cape Town International Airport,-33.964802,18.60166,6,0,6,30,0,30,0,0,0,0,4,0,287,1,0.069644
511,OVD,,Asturias,SPAIN,Asturias Airport,43.56356,-6.03462,16,0,16,123,0,123,0,0,0,0,8,0,221,0.754167,0.149384
512,GRX,,Granada,SPAIN,Granada Federico Garcia Lorca Airport,37.188728,-3.77735,11,0,11,104,0,104,0,0,0,0,8,0,251,0.809091,0.108421
513,LFW,,Lome,TOGO,Lome Tokoin Airport,6.165611,1.254511,2,0,2,7,0,7,0,0,0,0,5,0,124,1,0.022407
514,SFA,,Sfax,TUNISIA,Sfax–Thyna International Airport,34.717949,10.69097,1,0,1,3,0,3,0,0,0,0,0,0,329,0,0.012446
515,CLT,,Charlotte,UNITED STATES,Charlotte Douglas International Airport,35.214001,-80.9431,8,0,8,72,0,72,0,0,0,0,4,0,33,1,0.096407
516,DFW,,Dallas,UNITED STATES,Dallas Fort Worth International Airport,32.89682,-97.037903,7,0,7,85,0,85,0,0,0,0,4,0,31,1,0.078879
517,DEN,,Denver,UNITED STATES,Denver International Airport,39.861649,-104.672997,6,0,6,44,0,44,0,0,0,0,4,0,30,0.866667,0.065164
518,DTW,,Detroit,UNITED STATES,Detroit Metropolitan Wayne County Airport,42.21244,-83.353302,7,0,7,92,0,92,0,0,0,0,4,0,29,0.952381,0.078735
519,IAH,,Houston,UNITED STATES,Houston George Bush Intercontinental Airport,29.98443,-95.3414,7,0,7,93,0,93,0,0,0,0,4,0,28,1,0.083047
520,MSP,,Minneapolis,UNITED STATES,Minneapolis Saint Paul International Airport,44.88195,-93.221703,4,0,4,55,0,55,0,0,0,0,4,0,24,1,0.040929
521,RDU,,Raleigh-Durham,UNITED STATES,Raleigh-Durham International Airport,35.877628,-78.787399,2,0,2,16,0,16,0,0,0,0,4,0,18,1,0.021606
522,SLC,,Salt Lake City,UNITED STATES,Salt Lake City International Airport,40.78838,-111.976997,3,0,3,27,0,27,0,0,0,0,4,0,17,1,0.035297
523,SEA,,Seattle,UNITED STATES,Seattle Tacoma International Airport,47.4482,-122.311203,7,0,7,85,0,85,0,0,0,0,4,0,13,0.904762,0.072752
524,UGC,,Urgench,UZBEKISTAN,Urgench International Airport,41.584835,60.63303,5,0,5,17,0,17,0,0,0,0,3,0,136,0.95,0.045438
525,CCS,,Caracas,VENEZUELA,Caracas Simon Bolivar International Airport,10.60311,-66.990501,3,0,3,15,0,15,0,0,0,0,8,0,121,1,0.034285
526,HAN,,Hanoi,VIETNAM,Hanoi Noi Bai International Airport,21.221189,105.807098,7,0,7,34,0,34,0,0,0,0,3,0,10,0.738095,0.059345
527,SGN,,Ho Chi Minh City,VIETNAM,Ho Chi Minh City International Airport,10.81879,106.651802,5,0,5,22,0,22,0,0,0,0,0,0,9,1,0.052464
528,ZSA,,San Salvador,BAHAMAS,San Salvador Airport,24.063271,-74.523903,1,0,1,1,0,1,0,0,0,0,5,0,503,0,0.006933
529,SCU,,Santiago de Cuba,CUBA,Santiago de Cuba Antonio Maceo Airport,19.969761,-75.835403,3,0,3,4,0,4,0,0,0,0,5,0,502,1,0.029952
530,AGF,,Agen,FRANCE,Agen La Garenne Airport,44.174709,0.590619,1,0,1,14,0,14,0,0,0,0,5,0,501,0,0.006933
531,AUR,,Aurillac,FRANCE,Aurillac Tronquieres Airport,44.897579,2.416719,1,0,1,11,0,11,0,0,0,0,5,0,500,0,0.006933
532,DCM,,Castres,FRANCE,Castres Mazamet Airport,43.554958,2.290592,1,0,1,14,0,14,0,0,0,0,5,0,499,0,0.006933
533,LPY,,Le Puy,FRANCE,Le Puy Loudes Airport,45.083332,3.766667,1,0,1,12,0,12,0,0,0,0,5,0,498,0,0.006933
534,LRT,,Lorient,FRANCE,Lorient South Brittany Airport,47.760529,-3.43995,3,0,3,23,0,23,0,0,0,0,5,0,485,1,0.021677
535,PGX,,Perigueux,FRANCE,Perigueux Bassillac Airport,45.197479,0.815217,1,0,1,12,0,12,0,0,0,0,5,0,497,0,0.006933
536,UIP,,Quimper,FRANCE,Quimper Cornouaille Airport,47.974998,-4.16777,1,0,1,18,0,18,0,0,0,0,5,0,496,0,0.006933
537,CAY,,Cayenne,FRENCH GUIANA,Cayenne Felix Eboue Airport,4.819722,-52.3619,1,0,1,13,0,13,0,0,0,0,5,0,495,0,0.006933
538,PAP,,Port-au-Prince,HAITI,Port-au-Prince Toussaint Louverture International Airport,18.58005,-72.292503,1,0,1,1,0,1,0,0,0,0,5,0,493,0,0.006933
539,VDA,,Ovda,ISRAEL,Ovda Airport,29.94025,34.935848,3,0,3,4,0,4,0,0,0,0,3,0,345,0.666667,0.018137
540,OZZ,,Ouarzazate,MOROCCO,Ouarzazate Airport,30.939051,-6.90943,1,0,1,2,0,2,0,0,0,0,5,0,343,0,0.006933
541,TOE,,Tozeur,TUNISIA,Tozeur Nefta International Airport,33.93972,8.110556,1,0,1,2,0,2,0,0,0,0,5,0,342,0,0.006933
558,VIT,,Vitoria,SPAIN,Vitoria Airport,42.882832,-2.72446,6,0,6,10,0,10,0,0,0,0,8,0,108,0.5,0.038845
542,MZR,,Mazar-I-Sharif,AFGHANISTAN,Mazar-I-Sharif International Airport,36.706909,67.209671,4,0,4,10,0,10,0,0,0,0,2,0,468,0.666667,0.022925
543,OMR,,Oradea,ROMANIA,Oradea International Airport,47.025269,21.9025,6,0,6,36,0,36,0,0,0,0,0,0,157,0.6,0.038116
544,KIR,,Kerry,IRELAND,Kerry Airport,52.18087,-9.52378,6,6,12,29,30,59,4,0.370187,0.387401,0.393149,8,0,724,0.8,0.056137
546,MHG,,Mannheim,GERMANY,Mannheim City Airport,49.472698,8.514264,2,0,2,31,0,31,0,0,0,0,0,0,353,0,0.019239
547,SCN,,Saarbrucken,GERMANY,Saarbrucken Airport,49.21455,7.109508,9,0,9,76,0,76,0,0,0,0,0,0,352,0.611111,0.079406
548,DLM,,Dalaman,TURKEY,Dalaman Airport,36.713051,28.7925,31,38,69,275,291,566,4,0.443987,0.471936,187.391023,2,0,724,0.351552,0.252329
549,JER,,Jersey,UNITED KINGDOM,Jersey Airport,49.207939,-2.1955,26,29,55,209,291,500,4,0.388867,0.416495,99.157061,4,0,724,0.296774,0.190426
550,NQY,,Newquay,UNITED KINGDOM,Newquay Cornwall Airport,50.440552,-4.9954,12,0,12,64,0,64,0,0,0,0,4,0,38,0.643939,0.101967
551,YHM,,Hamilton,CANADA,Hamilton John C. Munro International Airport,43.173611,-79.934998,1,0,1,1,0,1,0,0,0,0,0,0,490,0,0.009659
552,YYT,,St. John's,CANADA,St. John's International Airport,47.61861,-52.7519,3,0,3,12,0,12,0,0,0,0,4,0,489,1,0.030818
553,POP,,Puerto Plata,DOMINICAN REPUBLIC,Puerto Plata Gregorio Luperon International Airport,19.7579,-70.57,4,0,4,6,0,6,0,0,0,0,0,0,487,0.666667,0.041807
554,AOK,,Karpathos,GREECE,Karpathos Island National Airport,35.421398,27.146,4,0,4,16,0,16,0,0,0,0,6,0,486,0.833333,0.041383
555,TRS,,Trieste,ITALY,Trieste Friuli Venezia Giulia Airport,45.827499,13.47222,15,0,15,97,0,97,0,0,0,0,1,0,260,0.704762,0.134928
556,MBJ,,Montego Bay,JAMAICA,Montego Bay Sangster International Airport,18.50371,-77.9133,5,0,5,16,0,16,0,0,0,0,8,0,304,0.35,0.053972
557,WDH,,Windhoek,NAMIBIA,Windhoek Hosea Kutako International Airport,-22.479799,17.470949,3,0,3,13,0,13,0,0,0,0,0,0,292,0.666667,0.036324
559,SZF,,Samsun,TURKEY,Samsun Carsamba Airport,41.254478,36.567101,8,0,8,121,0,121,0,0,0,0,2,0,75,0.910714,0.059399
560,LAS,,Las Vegas,UNITED STATES,Las Vegas McCarran International Airport,36.080051,-115.152,7,0,7,41,0,41,0,0,0,0,4,0,27,0.785714,0.079113
561,RSW,,Fort Myers,UNITED STATES,Southwest Florida International Airport,26.53616,-81.755096,3,0,3,6,0,6,0,0,0,0,0,0,315,0.666667,0.034382
562,SZY,,Olsztyn,POLAND,Olsztyn Mazury Airport,53.481899,20.9377,3,0,3,8,0,8,0,0,0,0,0,0,401,0.666667,0.023588
388,PXO,,Porto Santo,PORTUGAL,Porto Santo Airport,33.07338,-16.349899,5,0,5,37,0,37,0,0,0,0,5,0,163,0.9,0.048552
565,ADA,,Adana,TURKEY,Adana Sakirpasa Airport,36.982159,35.28038,12,18,30,348,391,739,4,0.40124,0.425335,23.100226,2,0,724,0.480392,0.086897
566,EZS,,Elazig,TURKEY,Elazig Airport,38.606918,39.291409,6,0,6,73,0,73,0,0,0,0,2,0,92,0.966667,0.040601
567,GZT,,Gaziantep,TURKEY,Oguzeli Airport,36.947182,37.47868,8,0,8,181,0,181,0,0,0,0,2,0,77,0.982143,0.06301
568,TZX,,Trabzon,TURKEY,Trabzon Airport,40.995098,39.789719,7,12,19,259,275,534,4,0.384859,0.406111,293.12891,2,0,724,0.393939,0.041917
569,ONQ,,Zonguldak,TURKEY,Zonguldak Airport,41.516666,32.099998,1,0,1,3,0,3,0,0,0,0,0,0,354,0,0.011328
570,GCI,,Guernsey,UNITED KINGDOM,Guernsey Airport,49.434952,-2.60196,9,0,9,188,0,188,0,0,0,0,4,0,2,0.347222,0.073854
571,BGI,,Bridgetown,BARBADOS,Bridgetown Grantley Adams International Airport,13.0746,-59.492401,3,0,3,20,0,20,0,0,0,0,8,0,555,0.5,0.035718
572,VCP,,Campinas,BRAZIL,Campinas Viracopos International Airport,-23.007299,-47.134499,4,0,4,23,0,23,0,0,0,0,5,0,554,1,0.044214
573,REC,,Recife,BRAZIL,Recife Airport,-8.12679,-34.923,3,0,3,15,0,15,0,0,0,0,5,0,553,1,0.035109
574,YYC,,Calgary,CANADA,Calgary International Airport,51.11388,-114.019997,4,0,4,42,0,42,0,0,0,0,4,0,552,0.666667,0.047382
575,CSX,,Changsha,CHINA,Changsha Huanghua International Airport,28.196667,113.220833,2,0,2,6,0,6,0,0,0,0,4,0,551,1,0.02243
576,TAO,,Qingdao,CHINA,Qingdao Liuting International Airport,36.266102,120.374397,3,0,3,7,0,7,0,0,0,0,3,0,550,1,0.030121
577,SHE,,Shenyang,CHINA,Shenyang Taoxian International Airport,41.639839,123.483398,1,0,1,4,0,4,0,0,0,0,0,0,549,0,0.013269
578,HOG,,Holguin,CUBA,Holguin Frank Pais Airport,20.78558,-76.315102,5,0,5,8,0,8,0,0,0,0,4,0,548,0.85,0.060056
579,AZS,,Samana,DOMINICAN REPUBLIC,Samana El Catey International Airport,19.267,-69.741997,1,0,1,1,0,1,0,0,0,0,0,0,547,0,0.013269
580,FMO,,Munster,GERMANY,Munster Osnabruck International  Airport,52.13464,7.684831,13,14,27,115,117,232,4,0.409359,0.431857,9.186759,0,0,724,0.516484,0.123365
581,PAD,,Paderborn,GERMANY,Paderborn Lippstadt Airport,51.614079,8.616317,5,5,10,61,61,122,4,0.390117,0.408685,0.295911,0,0,724,0.7,0.052869
582,EFL,,Kefalonia,GREECE,Kefalonia Cephalonia International Airport,38.12006,20.500481,19,0,19,65,0,65,0,0,0,0,8,0,326,0.520468,0.17041
584,SOB,,Sarmelleek,HUNGARY,Sarmellek International Airport,46.686378,17.15905,1,0,1,1,0,1,0,0,0,0,0,0,546,0,0.013269
585,PNQ,,Pune,INDIA,Pune Airport,18.582109,73.919693,1,0,1,7,0,7,0,0,0,0,0,0,545,0,0.013269
586,SNN,,Shannon,IRELAND,Shannon Airport,52.701969,-8.92481,21,27,48,102,155,257,4,0.401738,0.429025,60.146303,4,0,724,0.325123,0.173637
587,URA,,Oral,KAZAKHSTAN,Oral Ak Zhol Airport,51.150829,51.543049,4,0,4,26,0,26,0,0,0,0,3,0,271,0.666667,0.021743
588,MBA,,Mombasa,KENYA,Mombasa Moi International Airport,-4.03483,39.59425,1,0,1,2,0,2,0,0,0,0,0,0,298,0,0.013269
589,BZG,,Bydgoszcz,POLAND,Bydgoszcz Ignacy Jan Paderewski Airport,53.096802,17.977659,7,0,7,30,0,30,0,0,0,0,0,0,289,0.619048,0.06522
590,KJA,,Krasnoyarsk,RUSSIA,Krasnoyarsk International Airport,56.172939,92.493271,10,0,10,101,0,101,0,0,0,0,3,0,194,0.611111,0.071425
591,DMM,,Dammam,SAUDI ARABIA,Dammam King Fahd International Airport,26.471161,49.79789,6,0,6,25,0,25,0,0,0,0,2,0,253,0.733333,0.056477
592,PNA,,Pamplona,SPAIN,Pamplona Airport,42.770031,-1.64633,2,0,2,37,0,37,0,0,0,0,8,0,285,1,0.025148
594,DYU,,Dushanbe,TAJIKISTAN,Dushanbe International Airport,38.543331,68.824997,8,0,8,62,0,62,0,0,0,0,3,0,143,0.678571,0.041269
595,HKT,,Phuket,THAILAND,Phuket International Airport,8.1132,98.316872,5,0,5,21,0,21,0,0,0,0,3,0,133,0.8,0.039162
596,TAB,,Scarborough,TRINIDAD AND TOBAGO,Scarborough International Airport,11.14965,-60.8321,1,0,1,1,0,1,0,0,0,0,0,0,283,0,0.013269
597,PDX,,Portland,UNITED STATES,Portland International Airport,45.588718,-122.597,4,0,4,19,0,19,0,0,0,0,4,0,19,1,0.041753
598,SAN,,San Diego,UNITED STATES,San Diego International Airport,32.733551,-117.189003,3,0,3,14,0,14,0,0,0,0,4,0,16,1,0.03361
599,SJC,,San Jose,UNITED STATES,San Jose International Airport,37.362659,-121.929001,2,0,2,14,0,14,0,0,0,0,4,0,14,1,0.02243
600,TPA,,Tampa,UNITED STATES,Tampa International Airport,27.97547,-82.533203,4,0,4,16,0,16,0,0,0,0,8,0,44,0.833333,0.041343
602,TBZ,,Tabriz,IRAN,Tabriz International Airport,38.133881,46.235001,2,0,2,19,0,19,0,0,0,0,2,0,351,1,0.020439
604,RLG,,Rostock,GERMANY,Rostock Laage Airport,53.917999,12.278,7,0,7,33,0,33,0,0,0,0,0,0,541,0.666667,0.061812
605,LCJ,,Lodz,POLAND,Lodz Wladyslaw Reymont Airport,51.721882,19.39813,5,0,5,18,0,18,0,0,0,0,8,0,321,0.7,0.053404
606,LUZ,,Lublin,POLAND,Lublin Airport,51.240002,22.713333,10,0,10,35,0,35,0,0,0,0,0,0,254,0.355556,0.077768
607,GRV,,Grozny,RUSSIA,Grozny Airport,43.388199,45.699684,4,0,4,41,0,41,0,0,0,0,3,0,318,0.666667,0.027548
147,MBX,,Maribor,SLOVENIA,Maribor Airport,46.479858,15.68613,1,0,1,3,0,3,0,0,0,0,0,0,317,0,0.013396
608,NRK,,Norrkoping,SWEDEN,Norrkoping Airport,58.58625,16.25062,2,0,2,14,0,14,0,0,0,0,0,0,316,1,0.024143
610,HBE,,Alexandria,EGYPT,Alexandria Borg El Arab Airport,30.91766,29.6964,4,0,4,16,0,16,0,0,0,0,2,0,540,0.666667,0.039062
647,LPP,,Lappeenranta,FINLAND,Lappeenranta Airport,61.044552,28.14439,2,0,2,4,0,4,0,0,0,0,1,0,539,1,0.018518
364,AXD,,Alexandroupolis,GREECE,Alexandroupolis International Airport,40.855862,25.956261,1,0,1,34,0,34,0,0,0,0,6,0,538,0,0.010444
611,JTY,,Astypalaia Island,GREECE,Astypalaia Island National Airport,36.566666,26.366667,1,0,1,7,0,7,0,0,0,0,6,0,537,0,0.010444
612,JKH,,Chios,GREECE,Chios Island National Airport,38.34317,26.14057,2,0,2,51,0,51,0,0,0,0,6,0,536,1,0.017345
613,JIK,,Ikaria,GREECE,Ikaria Island National Airport,37.666668,26.333332,1,0,1,9,0,9,0,0,0,0,6,0,535,0,0.010444
614,JKL,,Kalymnos,GREECE,Kalymnos Island National Airport,36.963329,26.940556,2,0,2,13,0,13,0,0,0,0,6,0,323,1,0.015929
615,KSO,,Kastoria,GREECE,Kastoria National Airport,40.446289,21.282181,1,0,1,1,0,1,0,0,0,0,6,0,534,0,0.010444
616,KIT,,Kithira,GREECE,Kithira Island National Airport,36.27425,23.01697,2,0,2,9,0,9,0,0,0,0,6,0,533,1,0.024135
617,KZI,,Kozani,GREECE,Kozani National Airport,40.28611,21.84083,1,0,1,4,0,4,0,0,0,0,6,0,532,0,0.010444
618,LXS,,Lemnos,GREECE,Lemnos International Airport,39.917068,25.2363,2,0,2,14,0,14,0,0,0,0,6,0,531,1,0.017345
619,LRS,,Leros,GREECE,Leros Municipal Airport,37.184898,26.80028,1,0,1,6,0,6,0,0,0,0,6,0,530,0,0.010444
620,MLO,,Milos,GREECE,Milos Island National Airport,36.69611,24.477501,1,0,1,22,0,22,0,0,0,0,6,0,529,0,0.010444
621,JNX,,Naxos,GREECE,Naxos Island National Airport,37.080551,25.36805,1,0,1,27,0,27,0,0,0,0,6,0,528,0,0.010444
622,PAS,,Paros,GREECE,Paros National Airport,37.019958,25.113379,2,0,2,33,0,33,0,0,0,0,6,0,527,1,0.017345
623,JSH,,Sitia,GREECE,Sitia Public Airport,35.216099,26.10132,2,0,2,6,0,6,0,0,0,0,6,0,322,1,0.018304
624,SKU,,Skyros,GREECE,Skyros Island National Airport,38.967548,24.487221,2,0,2,7,0,7,0,0,0,0,6,0,526,1,0.017345
625,JSY,,Syros Island,GREECE,Syros Island National Airport,37.423611,24.950001,2,0,2,9,0,9,0,0,0,0,6,0,525,1,0.017345
626,BOO,,Bodo,NORWAY,Bodo Airport,67.269157,14.36527,7,19,26,139,353,492,4,0.3649,0.385771,682.923732,7,0,724,0.160819,0.041755
627,HAU,,Haugesund,NORWAY,Haugesund Karmoy Airport,59.345261,5.208364,5,5,10,58,58,116,4,0.35817,0.372468,0.275919,7,0,724,0.55,0.040908
628,KSF,,Kassel,GERMANY,Kassel Calden Airport,51.420834,9.392222,4,0,4,13,0,13,0,0,0,0,6,0,542,0.5,0.031681
788,EGO,,Belgorod,RUSSIA,Belgorod International Airport,50.639999,36.59,6,0,6,92,0,92,0,0,0,0,3,0,210,0.666667,0.037073
629,KZS,,Kastelorizo,GREECE,Kastellorizo Airport,36.127769,29.56665,1,0,1,5,0,5,0,0,0,0,6,0,544,0,0.007589
630,BLE,,Borlange,SWEDEN,Borlange Dala Airport,60.422009,15.51521,2,0,2,16,0,16,0,0,0,0,7,0,309,1,0.014498
631,VBY,,Visby,SWEDEN,Visby Airport,57.662788,18.34621,5,0,5,107,0,107,0,0,0,0,7,0,113,0.8,0.027609
632,YEG,,Edmonton,CANADA,Edmonton International Airport,53.309719,-113.579002,2,0,2,9,0,9,0,0,0,0,4,0,492,1,0.019323
633,GOH,,Nuuk,GREENLAND,Nuuk Airport,64.190918,-51.678001,1,0,1,4,0,4,0,0,0,0,4,0,350,0,0.005632
634,AEY,,Akureyri,ICELAND,Akureyri Airport,65.658607,-18.072201,1,0,1,5,0,5,0,0,0,0,4,0,349,0,0.005632
636,BHD,,Belfast,UNITED KINGDOM,Belfast City George Best  Airport,54.61805,-5.8725,17,20,37,412,435,847,4,0.390587,0.415723,21.673185,4,0,724,0.442105,0.120914
637,ANC,,Anchorage,UNITED STATES,Anchorage Ted Stevens International Airport,61.174358,-149.996002,1,0,1,1,0,1,0,0,0,0,4,0,348,0,0.005632
638,BWI,,Baltimore,UNITED STATES,Baltimore Washington International Airport,39.175362,-76.668297,2,0,2,16,0,16,0,0,0,0,4,0,35,1,0.014792
639,CLE,,Cleveland,UNITED STATES,Cleveland Hopkins International Airport,41.410252,-81.853897,1,0,1,6,0,6,0,0,0,0,4,0,347,0,0.005632
640,PIT,,Pittsburgh,UNITED STATES,Pittsburgh International Airport,40.49147,-80.232803,1,0,1,5,0,5,0,0,0,0,4,0,346,0,0.005632
641,PVD,,Providence,UNITED STATES,Providence Theodore Francis Green Airport,41.723991,-71.4282,5,0,5,19,0,19,0,0,0,0,4,0,41,0.4,0.033943
642,CFN,,Donegal,IRELAND,Donegal Airport,55.044189,-8.341,2,0,2,8,0,8,0,0,0,0,4,0,564,1,0.019294
643,SZZ,,Szczecin,POLAND,Szczecin Goleniow Airport,53.584728,14.9022,10,0,10,55,0,55,0,0,0,0,0,0,227,0.422222,0.072093
644,VGO,,Vigo,SPAIN,Vigo-Peinador Airport,42.2318,-8.62677,9,0,9,114,0,114,0,0,0,0,8,0,123,0.916667,0.088429
609,INV,,Inverness,UNITED KINGDOM,Inverness Airport,57.5425,-4.0475,10,0,10,108,0,108,0,0,0,0,4,0,40,0.477778,0.090411
645,IOM,,Isle of Man,UNITED KINGDOM,Isle of Man Airport,54.083328,-4.62388,11,0,11,150,0,150,0,0,0,0,4,0,39,0.5,0.090327
646,SWF,,Newburgh,UNITED STATES,Newburgh Stewart International Airport,41.504108,-74.104797,5,0,5,29,0,29,0,0,0,0,4,0,42,0.3,0.034769
601,BDL,,Windsor Locks,UNITED STATES,Windsor Locks Bradley International Airport,41.938881,-72.683197,1,0,1,8,0,8,0,0,0,0,4,0,222,0,0.011999
733,NOC,,Knock,IRELAND,Knock Ireland West Airport,53.91029,-8.81849,13,13,26,72,72,144,4,0.378263,0.400017,3.262502,8,0,724,0.596154,0.118392
648,LMP,,Lampedusa,ITALY,Lampedusa Airport,35.49791,12.61808,7,0,7,65,0,65,0,0,0,0,1,0,543,0.666667,0.05248
649,SCV,,Suceava,ROMANIA,Suceava International Airport,47.6875,26.35405,5,0,5,25,0,25,0,0,0,0,0,0,224,0.4,0.039009
650,CWC,,Chernivtsi,UKRAINE,Chernivtsi International Airport,48.259319,25.980829,2,0,2,10,0,10,0,0,0,0,0,0,66,1,0.013539
651,PMF,,Parma,ITALY,Parma Airport,44.824478,10.29636,2,0,2,7,0,7,0,0,0,0,1,0,557,0,0.009158
652,REG,,Reggio Calabria,ITALY,Reggio Calabria Airport,38.071201,15.65155,3,0,3,37,0,37,0,0,0,0,1,0,311,0.666667,0.019084
654,CYO,,Cayo Largo del Sur,CUBA,Cayo Largo del Sur Vilo Acuna Airport,21.616449,-81.545898,2,0,2,2,0,2,0,0,0,0,1,0,562,1,0.021788
655,LRM,,La Romana,DOMINICAN REPUBLIC,La Romana International Airport,18.45071,-68.911797,1,0,1,3,0,3,0,0,0,0,1,0,561,0,0.010647
656,ASM,,Asmara,ERITREA,Asmara International Airport,15.29185,38.91066,2,0,2,5,0,5,0,0,0,0,2,0,560,1,0.020544
657,NOS,,Nosy Be,MADAGASCAR,Nosy Be Fascene Airport,-13.312,48.314819,2,0,2,3,0,3,0,0,0,0,1,0,559,1,0.021788
658,MLE,,Male,MALDIVES,Male Velana International Airport,4.191833,73.529121,4,0,4,10,0,10,0,0,0,0,2,0,558,1,0.039376
659,NVI,,Navoiy,UZBEKISTAN,Navoi International Airport,40.117771,65.175003,3,0,3,10,0,10,0,0,0,0,1,0,130,0.5,0.018158
660,PNL,,Pantelleria,ITALY,Pantelleria Airport,36.816509,11.96886,3,0,3,66,0,66,0,0,0,0,1,0,305,0.666667,0.017611
661,PIK,,Prestwick,UNITED KINGDOM,Glasgow Prestwick Airport,55.509441,-4.58666,16,19,35,62,69,131,4,0.392006,0.41495,17.945887,8,0,724,0.347953,0.126692
663,LMO,,Lossiemouth,UNITED KINGDOM,Royal Air Force,57.705212,-3.33916,1,0,1,1,0,1,0,0,0,0,1,0,246,0,0.011141
665,AKX,,Aktobe,KAZAKHSTAN,Aktobe Airport,50.245831,57.206661,3,0,3,38,0,38,0,0,0,0,3,0,279,1,0.010543
666,KGF,,Karaganda,KAZAKHSTAN,Karaganda Sary-Arka Airport,49.67083,73.334442,3,0,3,30,0,30,0,0,0,0,3,0,275,0.333333,0.014573
667,KOV,,Kokshetau,KAZAKHSTAN,Kokshetau Airport,53.330002,69.596664,1,0,1,2,0,2,0,0,0,0,3,0,274,0,0.00126
668,KSN,,Kostanay,KAZAKHSTAN,Kostanay Airport,53.20694,63.55027,3,0,3,22,0,22,0,0,0,0,3,0,273,1,0.010543
669,KZO,,Kyzylorda,KAZAKHSTAN,Kyzylorda Airport,44.70694,65.592499,2,0,2,23,0,23,0,0,0,0,3,0,272,1,0.002852
670,UKK,,Oskemen,KAZAKHSTAN,Oskemen Airport,50.036591,82.494179,3,0,3,45,0,45,0,0,0,0,3,0,270,0.333333,0.008473
671,PWQ,,Pavlodar,KAZAKHSTAN,Pavlodar Airport,52.195,77.073883,3,0,3,28,0,28,0,0,0,0,3,0,269,0.333333,0.008473
672,PPK,,Petropavl,KAZAKHSTAN,Petropavl,54.774349,69.18399,2,0,2,4,0,4,0,0,0,0,3,0,268,1,0.002852
673,PLX,,Semipalatinsk,KAZAKHSTAN,Semipalatinsk Semey Airport,50.351299,80.23436,2,0,2,10,0,10,0,0,0,0,3,0,267,1,0.002852
674,CIT,,Shymkent,KAZAKHSTAN,Shymkent International Airport,42.364159,69.478882,4,0,4,77,0,77,0,0,0,0,3,0,266,0.5,0.013264
675,DZN,,Zhezkazgan,KAZAKHSTAN,Zhezkazgan,47.708328,67.73333,2,0,2,10,0,10,0,0,0,0,3,0,265,1,0.002852
676,TDK,,Taldykorgan,KAZAKHSTAN,Taldykorgan Airport,45.109287,78.441322,1,0,1,8,0,8,0,0,0,0,3,0,278,0,0.001592
677,DMB,,Taraz,KAZAKHSTAN,Taraz Airport,42.853611,71.303612,2,0,2,11,0,11,0,0,0,0,3,0,277,0,0.007214
678,OMS,,Omsk,RUSSIA,Omsk Tsentralny Airport,54.967041,73.310509,7,0,7,71,0,71,0,0,0,0,3,0,154,0.666667,0.031649
679,LPX,,Liepaja,LATVIA,Liepaja Airport,56.517502,21.096939,1,0,1,4,0,4,0,0,0,0,7,0,262,0,0.008412
680,AES,,Alesund,NORWAY,Alesund Vigra Airport,62.560371,6.110164,7,8,15,127,129,256,4,0.376941,0.395898,8.649991,7,0,724,0.660714,0.046348
681,FBM,,Lubumbashi,DEMOCRATIC REPUBLIC OF THE CONGO,Lubumbashi International Airport,-11.5913,27.53088,1,0,1,1,0,1,0,0,0,0,0,0,622,0,0.007292
682,SJU,,San Juan,PUERTO RICO,San Juan Luis Munoz Marin International Airport,18.439409,-66.001801,2,0,2,5,0,5,0,0,0,0,8,0,621,1,0.019171
683,IND,,Indianapolis,UNITED STATES,Indianapolis International Airport,39.717289,-86.294601,1,0,1,2,0,2,0,0,0,0,0,0,126,0,0.007292
684,AUA,,Oranjestad,ARUBA,Oranjestad Queen Beatrix International Airport,12.50138,-70.015198,2,0,2,11,0,11,0,0,0,0,4,0,699,1,0.024952
685,RAI,,Praia,CAPE VERDE,Praia Nelson Mandela International Airport,14.92448,-23.4935,3,0,3,16,0,16,0,0,0,0,5,0,584,0.666667,0.025287
686,HGH,,Hangzhou,CHINA,Hangzhou Xiaoshan International Airport,30.2295,120.434402,1,0,1,3,0,3,0,0,0,0,4,0,698,0,0.013691
687,XMN,,Xiamen,CHINA,Xiamen Gaoqi International Airport,24.544029,118.127701,1,0,1,8,0,8,0,0,0,0,4,0,697,0,0.013691
688,CUR,,Willemstad,CURACAO,Willemstad Curacao Hato International Airport,12.18885,-68.959801,1,0,1,16,0,16,0,0,0,0,4,0,696,0,0.013691
689,UIO,,Quito,ECUADOR,Quito Mariscal Sucre International Airport,-0.1133,-78.358597,2,0,2,19,0,19,0,0,0,0,8,0,648,1,0.025569
690,CGK,,Jakarta,INDONESIA,Jakarta Soekarno Hatta International Airport,-6.12556,106.6558,3,0,3,19,0,19,0,0,0,0,4,0,690,1,0.032749
691,BON,,Bonaire,NETHERLANDS,Bonaire Flamingo International Airport,12.13104,-68.268501,1,0,1,3,0,3,0,0,0,0,4,0,695,0,0.013691
692,PBM,,Paramaribo,SURINAME,Paramaribo Zanderij International Airport,5.452831,-55.187698,1,0,1,12,0,12,0,0,0,0,4,0,694,0,0.013691
693,LPI,,Linkoping,SWEDEN,Linkoping City Airport,58.406151,15.6805,1,0,1,22,0,22,0,0,0,0,4,0,693,0,0.013691
694,JRO,,Kilimanjaro,TANZANIA,Kilimanjaro International Airport,-3.4294,37.074459,2,0,2,10,0,10,0,0,0,0,4,0,674,1,0.023588
695,MME,,Darlington,UNITED KINGDOM,Darlington Durham Tees Valley Airport,54.509178,-1.4294,3,0,3,40,0,40,0,0,0,0,4,0,50,1,0.017726
355,HUY,,Humberside,UNITED KINGDOM,Humberside Airport,53.57444,-0.35083,4,5,9,41,42,83,4,0.372031,0.389719,3.618608,4,0,724,0.5,0.030629
696,SFB,,Orlando,UNITED STATES,Orlando Sanford International Airport,28.776699,-81.235497,8,0,8,13,0,13,0,0,0,0,4,0,4,0.482143,0.072983
697,AHU,,Al Hoceima,MOROCCO,Al Hoceima Cherif Al Idrissi Airport,35.177101,-3.83952,1,0,1,2,0,2,0,0,0,0,8,0,565,0,0.003021
698,KSU,,Kristiansund,NORWAY,Kristiansund Kvernberget Airport,63.111778,7.824522,5,0,5,68,0,68,0,0,0,0,7,0,228,0.9,0.019359
699,FRO,,Floro,NORWAY,Floro Airport,61.583611,5.024722,2,0,2,46,0,46,0,0,0,0,7,0,234,1,0.013047
700,FDE,,Forde,NORWAY,Forde Airport,61.391109,5.756944,2,0,2,36,0,36,0,0,0,0,7,0,233,1,0.013047
701,MOL,,Molde,NORWAY,Molde Aro Airport,62.74472,7.2625,2,0,2,55,0,55,0,0,0,0,7,0,232,1,0.013047
702,NTB,,Notodden,NORWAY,Notodden Airport,59.565701,9.21222,1,0,1,14,0,14,0,0,0,0,7,0,231,0,0.004087
703,HOV,,Orsta Volda,NORWAY,Orsta Volda Airport,62.182999,6.067,2,0,2,36,0,36,0,0,0,0,7,0,230,1,0.013047
704,SOG,,Sogndal,NORWAY,Sogndal Airport,61.156109,7.136614,2,0,2,38,0,38,0,0,0,0,7,0,229,1,0.013047
705,ANX,,Andenes,NORWAY,Andenes Andoya Airport,69.292503,16.144159,2,0,2,20,0,20,0,0,0,0,7,0,245,1,0.001584
706,BDU,,Bardufoss,NORWAY,Bardufoss Airport,69.055748,18.54035,2,0,2,25,0,25,0,0,0,0,7,0,244,1,0.00967
707,BNN,,Bronnoysund,NORWAY,Bronnoysund Airport,65.461113,12.2175,2,0,2,36,0,36,0,0,0,0,7,0,243,1,0.003155
708,EVE,,Harstad,NORWAY,Evenes Harstad Narvik Airport,68.491302,16.678101,4,0,4,81,0,81,0,0,0,0,7,0,242,1,0.01299
709,LKN,,Leknes,NORWAY,Leknes Airport,68.152496,13.60944,3,0,3,53,0,53,0,0,0,0,7,0,241,1,0.010545
710,MQN,,Mo i Rana,NORWAY,Mo i Rana Airport,66.363876,14.30138,3,0,3,46,0,46,0,0,0,0,7,0,240,1,0.012115
711,MJF,,Mosjoen,NORWAY,Mosjoen Airport,65.783989,13.21491,3,0,3,34,0,34,0,0,0,0,7,0,239,1,0.012115
712,RET,,Rost,NORWAY,Rost Airport,67.527771,12.10333,1,0,1,4,0,4,0,0,0,0,7,0,238,0,0.00071
713,SSJ,,Sandnessjoen,NORWAY,Sandnessjoen Airport,65.956818,12.46894,3,0,3,31,0,31,0,0,0,0,7,0,237,1,0.012115
714,SKN,,Stokmarknes,NORWAY,Stokmarknes Skagen Airport,68.580833,15.02611,3,0,3,50,0,50,0,0,0,0,7,0,219,1,0.010545
715,SVJ,,Svolvaer,NORWAY,Svolvaer Helle Airport,68.243332,14.66916,2,0,2,43,0,43,0,0,0,0,7,0,236,1,0.00967
716,VRY,,Værøy,NORWAY,Værøy Heliport,67.655403,12.727,1,0,1,14,0,14,0,0,0,0,7,0,235,0,0.00071
717,ALF,,Alta,NORWAY,Alta Airport,69.976112,23.37166,2,0,2,52,0,52,0,0,0,0,7,0,573,1,0.009835
719,KKN,,Kirkenes,NORWAY,Kirkenes Hoybuktmoen Airport,69.725777,29.891291,2,0,2,33,0,33,0,0,0,0,7,0,572,1,0.009835
720,LYR,,Longyearbyen,NORWAY,Longyearbyen Svalbard Airport,78.246109,15.46555,2,0,2,13,0,13,0,0,0,0,7,0,571,1,0.009835
721,OSY,,Namsos,NORWAY,Namsos Airport,64.467003,11.583,2,0,2,17,0,17,0,0,0,0,7,0,570,1,0.011406
722,RRS,,Roros,NORWAY,Roros Airport,62.578411,11.34234,1,0,1,12,0,12,0,0,0,0,7,0,569,0,0.00896
723,SDN,,Sandane,NORWAY,Sandane Airport,61.830002,6.109444,1,0,1,13,0,13,0,0,0,0,7,0,568,0,0.00896
724,SRP,,Stord,NORWAY,Stord Sorstokken Airport,59.79192,5.34085,1,0,1,13,0,13,0,0,0,0,7,0,567,0,0.00896
384,EBJ,,Esbjerg,DENMARK,Esbjerg Airport,55.52594,8.553403,2,0,2,16,0,16,0,0,0,0,7,0,563,1,0.006578
725,HFT,,Hammerfest,NORWAY,Hammerfest Airport,70.679726,23.668612,1,0,1,39,0,39,0,0,0,0,7,0,576,0,0.000874
726,HAA,,Hasvik,NORWAY,Hasvik Airport,70.486671,22.13974,1,0,1,11,0,11,0,0,0,0,7,0,575,0,0.000874
727,LKL,,Lakselv,NORWAY,Lakselv Banak Airport,70.06881,24.97348,1,0,1,18,0,18,0,0,0,0,7,0,574,0,0.000874
728,SOJ,,Sorkjosen,NORWAY,Sorkjosen Airport,69.786827,20.95944,1,0,1,12,0,12,0,0,0,0,7,0,220,0,0.000874
729,VDS,,Vadso,NORWAY,Vadso Airport,70.065269,29.844721,1,0,1,15,0,15,0,0,0,0,7,0,218,0,0.000874
730,RVK,,Rorvik,NORWAY,Rorvik Airport,64.838333,11.146111,1,0,1,12,0,12,0,0,0,0,7,0,577,0,0.002445
731,RKT,,Ra'sal-Khaymah,UNITED ARAB EMIRATES,Ras Al Khaimah International Airport,25.61348,55.938808,2,0,2,2,0,2,0,0,0,0,8,0,120,0,0.008564
732,IEG,,Zielona Gora,POLAND,Zielona Gora Babimost Airport,52.138512,15.79855,1,0,1,7,0,7,0,0,0,0,0,0,582,0,0.010066
735,BEL,,Belem,BRAZIL,Belem Val de Cans International Airport,-1.37925,-48.4762,1,0,1,3,0,3,0,0,0,0,5,0,639,0,0.009961
736,CNF,,Belo Horizonte,BRAZIL,Belo Horizonte Tancredo Neves International Airport,-19.633699,-43.9688,1,0,1,7,0,7,0,0,0,0,5,0,638,0,0.009961
737,BSB,,Brasilia,BRAZIL,Brasilia International Airport,-15.8711,-47.918598,1,0,1,7,0,7,0,0,0,0,5,0,637,0,0.009961
738,NAT,,Natal,BRAZIL,Natal International Airport,-5.768056,-35.37611,1,0,1,3,0,3,0,0,0,0,5,0,636,0,0.009961
739,POA,,Porto Alegre,BRAZIL,Porto Alegre Salgado Filho International Airport,-29.9944,-51.171398,1,0,1,4,0,4,0,0,0,0,5,0,635,0,0.009961
740,SSA,,Salvador,BRAZIL,Salvador International Airport,-12.9109,-38.331001,2,0,2,10,0,10,0,0,0,0,5,0,634,1,0.021839
741,OXB,,Bissau,GUINEA-BISSAU,Bissau Osvaldo Vieira International Airport,11.8947,-15.6536,1,0,1,4,0,4,0,0,0,0,5,0,633,0,0.009961
742,MPM,,Maputo,MOZAMBIQUE,Maputo International Airport,-25.920799,32.572601,1,0,1,3,0,3,0,0,0,0,5,0,632,0,0.009961
743,HOR,,Horta,PORTUGAL,Horta Airport,38.51989,-28.715799,2,0,2,22,0,22,0,0,0,0,5,0,162,1,0.011596
744,TER,,Lajes,PORTUGAL,Lajes Field,38.761841,-27.0907,3,0,3,64,0,64,0,0,0,0,5,0,161,1,0.018997
745,PIX,,Pico,PORTUGAL,Pico Airport,38.554329,-28.441299,2,0,2,19,0,19,0,0,0,0,5,0,160,1,0.011596
746,SMA,,Santa Maria,PORTUGAL,Santa Maria Airport,36.97139,-25.170601,2,0,2,15,0,15,0,0,0,0,5,0,159,1,0.011596
747,TMS,,Sao Tome,SAO TOME AND PRINCIPE,Sao Tome International Airport,0.378175,6.712153,1,0,1,1,0,1,0,0,0,0,5,0,631,0,0.009961
748,LCG,,A Coruna,SPAIN,A Coruna Airport,43.302059,-8.37725,9,0,9,114,0,114,0,0,0,0,8,0,626,0.819444,0.087673
860,LEN,,Leon,SPAIN,Leon Airport,42.58889,-5.655556,3,0,3,9,0,9,0,0,0,0,8,0,125,0.666667,0.030233
749,TFN,,Tenerife,SPAIN,Tenerife North Airport,28.482651,-16.341499,13,20,33,542,791,1333,4,0.376211,0.399331,273.46216,8,0,724,0.402632,0.112636
750,FLW,,Flores,PORTUGAL,Flores Airport,39.455269,-31.1313,1,0,1,7,0,7,0,0,0,0,5,0,583,0,0.001635
751,SJZ,,Sao Jorge,PORTUGAL,Sao Jorge Airport,38.665501,-28.1758,1,0,1,5,0,5,0,0,0,0,5,0,158,0,0.001635
752,DLE,,Dole,FRANCE,Dole Jura Airport,47.04277,5.435,1,0,1,3,0,3,0,0,0,0,5,0,586,0,0.007401
753,XCR,,Paris,FRANCE,Paris Vatry Chalons Airport,48.759998,4.2,1,0,1,3,0,3,0,0,0,0,5,0,585,0,0.007401
754,SUJ,,Satu Mare,ROMANIA,Satu Mare International Airport,47.70327,22.8857,2,0,2,14,0,14,0,0,0,0,0,0,566,1,0.01893
755,HRB,,Harbin,CHINA,Harbin Taiping International Airport,45.623402,126.250298,1,0,1,5,0,5,0,0,0,0,3,0,616,0,0.002074
756,OSS,,Osh,KYRGYZSTAN,Osh,40.608978,72.793259,3,0,3,30,0,30,0,0,0,0,3,0,578,1,0.013278
757,AAQ,,Anapa,RUSSIA,Anapa Airport,45.00209,37.347271,5,0,5,77,0,77,0,0,0,0,3,0,215,0.7,0.023691
758,EYK,,Beloyarsk,RUSSIA,Beloyarsk Airport,63.683056,66.68306,2,0,2,10,0,10,0,0,0,0,3,0,610,1,0.004795
759,BQS,,Blagoveshchensk,RUSSIA,Blagoveshchensk Ignatyevo Airport,50.425388,127.412399,1,0,1,9,0,9,0,0,0,0,3,0,615,0,0.002074
760,HTA,,Chita,RUSSIA,Chita Kadala Airport,52.02631,113.305496,2,0,2,19,0,19,0,0,0,0,3,0,203,1,0.007696
761,IKT,,Irkutsk,RUSSIA,Irkutsk International Airport,52.268021,104.388901,4,0,4,59,0,59,0,0,0,0,3,0,200,0.5,0.018108
762,KHV,,Khabarovsk,RUSSIA,Khabarovsk Novy Airport,48.528042,135.188293,3,0,3,23,0,23,0,0,0,0,3,0,604,0.666667,0.012487
825,HMA,,Khanty-Mansiysk,RUSSIA,Khanty-Mansiysk Airport,61.0186,69.083801,3,0,3,17,0,17,0,0,0,0,3,0,603,0.666667,0.012487
763,LPK,,Lipetsk,RUSSIA,Lipetsk Airport,52.702801,39.5378,5,0,5,36,0,36,0,0,0,0,3,0,193,0.9,0.016843
764,MJZ,,Mirny,RUSSIA,Mirny Airport,62.534679,114.038902,2,0,2,6,0,6,0,0,0,0,3,0,190,1,0.007696
765,NBC,,Naberezhnye Chelny,RUSSIA,Naberezhnye Chelny Begishevo Airport,55.564125,52.103409,6,0,6,72,0,72,0,0,0,0,3,0,188,0.8,0.031288
766,NYM,,Nadym,RUSSIA,Nadym Airport,65.481659,72.698883,4,0,4,23,0,23,0,0,0,0,3,0,187,0.833333,0.016
767,NJC,,Nizhnevartovsk,RUSSIA,Nizhnevartovsk Airport,60.949268,76.483612,3,0,3,28,0,28,0,0,0,0,3,0,186,0.666667,0.015387
768,NSK,,Norilsk,RUSSIA,Norilsk Alykel Airport,69.31105,87.332176,3,0,3,35,0,35,0,0,0,0,3,0,184,1,0.013278
769,NUX,,Novy Urengoy,RUSSIA,Novy Urengoy Airport,66.069443,76.520271,5,0,5,62,0,62,0,0,0,0,3,0,182,0.7,0.023691
770,NOJ,,Noyabrsk,RUSSIA,Noyabrsk Airport,63.183056,75.269165,4,0,4,20,0,20,0,0,0,0,3,0,181,0.833333,0.016
771,REN,,Orenburg,RUSSIA,Orenburg Tsentralny Airport,51.79578,55.456741,6,0,6,58,0,58,0,0,0,0,3,0,180,0.8,0.031288
772,TJM,,Tyumen,RUSSIA,Roschino International Airport,57.18956,65.324287,7,0,7,124,0,124,0,0,0,0,3,0,152,0.809524,0.032131
773,SLY,,Salekhard,RUSSIA,Salekhard Airport,66.590752,66.611038,4,0,4,25,0,25,0,0,0,0,3,0,175,0.833333,0.02097
774,SCW,,Syktyvkar,RUSSIA,Syktyvkar Airport,61.647049,50.845051,5,0,5,55,0,55,0,0,0,0,3,0,146,0.7,0.023691
775,YKS,,Yakutsk,RUSSIA,Yakutsk Airport,62.09325,129.770599,5,0,5,30,0,30,0,0,0,0,3,0,144,0.7,0.023691
776,LBD,,Khudzhand,TAJIKISTAN,Khudzhand Khujand Airport,40.215279,69.694725,3,0,3,19,0,19,0,0,0,0,3,0,142,1,0.013278
777,SIP,,Simferopol,UKRAINE,Simferopol International Airport,45.052219,33.975128,6,0,6,263,0,263,0,0,0,0,3,0,132,0.8,0.024534
778,NMA,,Namangan,UZBEKISTAN,Namangan Airport,40.98457,71.55674,3,0,3,7,0,7,0,0,0,0,3,0,138,1,0.013278
779,SKD,,Samarkand,UZBEKISTAN,Samarkand International Airport,39.700539,66.983818,6,0,6,24,0,24,0,0,0,0,3,0,55,0.733333,0.033588
780,LLK,,Lankaran,AZERBAIJAN,Lankaran International Airport,38.742031,48.824093,1,0,1,1,0,1,0,0,0,0,3,0,581,0,0.005622
781,SYX,,Sanya,CHINA,Sanya Phoenix International Airport,18.302891,109.412201,2,0,2,2,0,2,0,0,0,0,3,0,580,0,0.008343
782,PED,,Pardubice,CZECH REPUBLIC,Pardubice Airport,50.013409,15.73864,3,0,3,7,0,7,0,0,0,0,8,0,579,0.833333,0.026363
783,ABA,,Abakan,RUSSIA,Abakan International Airport,53.740002,91.385002,2,0,2,14,0,14,0,0,0,0,3,0,216,0,0.013313
784,KVK,,Apatity,RUSSIA,Apatity Airport,67.463303,33.588299,3,0,3,22,0,22,0,0,0,0,3,0,214,0.666667,0.018896
785,ARH,,Arkhangelsk,RUSSIA,Arkhangelsk Talagi Airport,64.600281,40.71666,5,0,5,76,0,76,0,0,0,0,3,0,213,0.7,0.029213
786,ASF,,Astrakhan,RUSSIA,Astrakhan Narimanovo Airport,46.283329,48.006271,4,0,4,48,0,48,0,0,0,0,3,0,212,0.5,0.023631
787,BAX,,Barnaul,RUSSIA,Barnaul Airport,53.36377,83.538528,4,0,4,34,0,34,0,0,0,0,3,0,211,0.5,0.021617
789,OGZ,,Beslan,RUSSIA,Beslan Airport,43.205002,44.606667,4,0,4,30,0,30,0,0,0,0,3,0,209,0.833333,0.021522
790,BTK,,Bratsk,RUSSIA,Bratsk Airport,56.370548,101.698303,1,0,1,6,0,6,0,0,0,0,3,0,208,0,0.005622
791,BZK,,Bryansk,RUSSIA,Bryansk International Airport,53.214191,34.176441,2,0,2,12,0,12,0,0,0,0,3,0,207,1,0.011204
792,UUA,,Bugulma,RUSSIA,Bugulma Airport,54.630001,52.790001,1,0,1,11,0,11,0,0,0,0,3,0,206,0,0.005622
793,CEK,,Chelyabinsk,RUSSIA,Chelyabinsk Airport,55.305828,61.50333,6,0,6,110,0,110,0,0,0,0,3,0,205,0.733333,0.030057
794,CEE,,Cherepovets,RUSSIA,Cherepovets Airport,59.276669,38.028332,3,0,3,44,0,44,0,0,0,0,3,0,204,0.666667,0.018896
795,GDZ,,Gelendzhik,RUSSIA,Gelendzhik Airport,44.566666,38.016666,2,0,2,14,0,14,0,0,0,0,3,0,202,0,0.013313
796,RGK,,Gorno-Altaysk,RUSSIA,Gorno-Altaysk Airport,51.969166,85.836388,1,0,1,3,0,3,0,0,0,0,3,0,201,0,0.005622
797,IJK,,Izhevsk,RUSSIA,Izhevsk Airport,56.828049,53.4575,3,0,3,41,0,41,0,0,0,0,3,0,199,0.666667,0.013926
798,KEJ,,Kemerovo,RUSSIA,Kemerovo International Airport,55.270088,86.107201,3,0,3,24,0,24,0,0,0,0,3,0,196,0,0.016034
799,MCX,,Makhachkala,RUSSIA,Makhachkala Uytash Airport,42.816818,47.65229,4,0,4,79,0,79,0,0,0,0,3,0,192,0.666667,0.023823
800,NOZ,,Novokuznetsk,RUSSIA,Novokuznetsk Spichenkovo Airport,53.811378,86.87722,2,0,2,16,0,16,0,0,0,0,3,0,183,0,0.013313
801,OSW,,Orsk,RUSSIA,Orsk Airport,51.071667,58.596668,1,0,1,8,0,8,0,0,0,0,3,0,179,0,0.005622
802,PEZ,,Penza,RUSSIA,Penza Airport,53.11055,45.021111,3,0,3,42,0,42,0,0,0,0,3,0,178,0.666667,0.013926
803,PEE,,Perm,RUSSIA,Perm Bolshoye Savino Airport,57.914509,56.02121,6,0,6,115,0,115,0,0,0,0,3,0,153,0.733333,0.030057
804,PES,,Petrozavodsk,RUSSIA,Petrozavodsk Airport,61.885159,34.154739,1,0,1,8,0,8,0,0,0,0,3,0,177,0,0.005622
805,SBT,,Sabetta,RUSSIA,Sabetta International Airport,71.236946,72.153053,1,0,1,10,0,10,0,0,0,0,3,0,176,0,0.005622
806,SKX,,Saransk,RUSSIA,Saransk Airport,54.125,45.215,3,0,3,32,0,32,0,0,0,0,3,0,174,0,0.016034
807,RTW,,Saratov,RUSSIA,Saratov Tsentralny Airport,51.564999,46.046665,3,0,3,51,0,51,0,0,0,0,3,0,173,0.666667,0.018896
808,STW,,Stavropol,RUSSIA,Stavropol Shpakovskoye Airport,45.109161,42.11277,4,0,4,44,0,44,0,0,0,0,3,0,172,0.5,0.021617
809,TOF,,Tomsk,RUSSIA,Tomsk Bogashevo Airport,56.383331,85.21167,2,0,2,31,0,31,0,0,0,0,3,0,171,0,0.013313
810,PYJ,,Udachny,RUSSIA,Udachny Polyarny Airport,66.410004,112.050003,1,0,1,2,0,2,0,0,0,0,3,0,170,0,0.005622
811,UCT,,Ukhta,RUSSIA,Ukhta Airport,63.56694,53.804722,2,0,2,14,0,14,0,0,0,0,3,0,169,1,0.011204
812,UUD,,Ulan-Ude,RUSSIA,Ulan-Ude Airport,51.807758,107.437599,2,0,2,16,0,16,0,0,0,0,3,0,168,0,0.008343
813,USK,,Usinsk,RUSSIA,Usinsk Airport,66.004723,57.367222,3,0,3,13,0,13,0,0,0,0,3,0,167,0.666667,0.013926
814,VOG,,Volgograd,RUSSIA,Volgograd International Airport,48.78252,44.345539,6,0,6,85,0,85,0,0,0,0,3,0,149,0.733333,0.030057
815,TJU,,Kulob,TAJIKISTAN,Kulob Airport,37.988335,69.805,2,0,2,13,0,13,0,0,0,0,3,0,156,0,0.008343
816,AZN,,Andizhan,UZBEKISTAN,Andizhan Airport,40.72773,72.294006,2,0,2,4,0,4,0,0,0,0,3,0,141,1,0.011204
817,BHK,,Bukhara,UZBEKISTAN,Bukhara International Airport,39.775002,64.48333,3,0,3,7,0,7,0,0,0,0,3,0,140,0.666667,0.013926
818,FEG,,Fergana,UZBEKISTAN,Fergana International Airport,40.358761,71.745018,3,0,3,5,0,5,0,0,0,0,3,0,139,0.666667,0.013926
819,KSQ,,Karshi,UZBEKISTAN,Karshi Airport,38.83363,65.921463,1,0,1,4,0,4,0,0,0,0,3,0,166,0,0.005622
820,TMJ,,Termez,UZBEKISTAN,Termez Airport,37.280502,67.318954,2,0,2,2,0,2,0,0,0,0,3,0,137,1,0.011204
822,AQJ,,Aqaba,JORDAN,Aqaba King Hussein International Airport,29.61161,35.018059,2,0,2,6,0,6,0,0,0,0,2,0,620,1,0.017588
823,ULN,,Ulan Bator,MONGOLIA,Ulan Bator Chinggis Khaan International Airport,47.843048,106.766602,1,0,1,6,0,6,0,0,0,0,3,0,619,0,0.007691
824,CSY,,Cheboksary,RUSSIA,Cheboksary Airport,56.09,47.34,4,0,4,22,0,22,0,0,0,0,3,0,609,0.833333,0.023592
826,GDX,,Magadan,RUSSIA,Magadan Sokol Airport,59.91098,150.720398,2,0,2,5,0,5,0,0,0,0,3,0,598,0,0.010412
827,MQF,,Magnitogorsk,RUSSIA,Magnitogorsk International Airport,53.393131,58.755661,3,0,3,29,0,29,0,0,0,0,3,0,596,0.666667,0.018009
828,PKC,,Petropavlovsk-Kamchatsky,RUSSIA,Petropavlovsk-Kamchatsky Airport,53.167881,158.453598,2,0,2,10,0,10,0,0,0,0,3,0,593,0,0.010412
829,VVO,,Vladivostok,RUSSIA,Vladivostok International Airport,43.398949,132.147995,2,0,2,20,0,20,0,0,0,0,3,0,589,0,0.010412
830,UUS,,Yuzhno-Sakhalinsk,RUSSIA,Yuzhno-Sakhalinsk Airport,46.888672,142.717499,2,0,2,10,0,10,0,0,0,0,3,0,587,0,0.010412
940,ZNZ,,Zanzibar,TANZANIA,Zanzibar Abeid Amani Karume International Airport,-6.22202,39.22488,2,0,2,4,0,4,0,0,0,0,2,0,134,1,0.017588
831,CXR,,Nha Trang,VIETNAM,Nha Trang Cam Ranh International Airport,11.993611,109.224998,1,0,1,2,0,2,0,0,0,0,3,0,131,0,0.007691
832,LWN,,Gyumri,ARMENIA,Gyumri Shirak Airport,40.75,43.849998,2,0,2,11,0,11,0,0,0,0,3,0,614,1,0.008304
833,NAJ,,Nakhchivan,AZERBAIJAN,Nakhchivan International Airport,39.18861,45.458332,2,0,2,3,0,3,0,0,0,0,2,0,613,1,0.012618
834,GOI,,Goa,INDIA,Goa International Airport,15.38083,73.831421,1,0,1,1,0,1,0,0,0,0,3,0,612,0,0.002721
835,DYR,,Anadyr,RUSSIA,Anadyr Ugolny Airport,64.730003,177.740005,1,0,1,4,0,4,0,0,0,0,3,0,611,0,0.002721
836,NER,,Chulman,RUSSIA,Chulman Airport,56.913334,124.911667,1,0,1,4,0,4,0,0,0,0,3,0,608,0,0.002721
837,ESL,,Elista,RUSSIA,Elista Airport,46.370594,44.332966,1,0,1,7,0,7,0,0,0,0,3,0,607,0,0.002721
838,IWA,,Ivanovo,RUSSIA,Ivanovo Yuzhny Airport,56.9394,40.9408,2,0,2,3,0,3,0,0,0,0,3,0,606,1,0.008304
839,KLF,,Kaluga,RUSSIA,Kaluga Grabtsevo Airport,54.549999,36.366669,3,0,3,14,0,14,0,0,0,0,3,0,605,1,0.009147
840,KVX,,Kirov,RUSSIA,Kirov Pobedilovo Airport,58.503052,49.347221,2,0,2,29,0,29,0,0,0,0,3,0,602,1,0.008304
841,KGP,,Kogalym,RUSSIA,Kogalym International Airport,62.195831,74.533607,1,0,1,8,0,8,0,0,0,0,3,0,601,0,0.002721
842,KRO,,Kurgan,RUSSIA,Kurgan Airport,55.475269,65.41555,1,0,1,8,0,8,0,0,0,0,3,0,600,0,0.002721
843,URS,,Kursk,RUSSIA,Kursk Airport,51.75,36.266666,2,0,2,6,0,6,0,0,0,0,3,0,599,1,0.008304
844,IGT,,Magas,RUSSIA,Magas Airport,43.3223,45.0126,1,0,1,16,0,16,0,0,0,0,3,0,597,0,0.002721
845,NAL,,Nalchik,RUSSIA,Nalchik Airport,43.513332,43.638332,2,0,2,19,0,19,0,0,0,0,3,0,595,1,0.008304
846,NNM,,Naryan-Mar,RUSSIA,Naryan-Mar Airport,67.639999,53.121941,2,0,2,11,0,11,0,0,0,0,3,0,594,1,0.008304
847,TBW,,Tambov,RUSSIA,Tambov Donskoye Airport,52.806099,41.4828,2,0,2,14,0,14,0,0,0,0,3,0,592,1,0.008304
848,ULV,,Ulyanovsk,RUSSIA,Ulyanovsk Baratayevka Airport,54.275555,48.243057,1,0,1,5,0,5,0,0,0,0,3,0,591,0,0.002721
849,ULY,,Ulyanovsk,RUSSIA,Ulyanovsk Vostochny Airport,54.400002,48.799999,3,0,3,49,0,49,0,0,0,0,3,0,590,1,0.0159
850,VKT,,Vorkuta,RUSSIA,Vorkuta Airport,67.488609,63.99305,1,0,1,5,0,5,0,0,0,0,3,0,588,0,0.002721
852,IAR,,Yaroslavl,RUSSIA,Yaroslavl Tunoshna Airport,57.560001,40.150002,1,0,1,4,0,4,0,0,0,0,3,0,617,0,0.005582
853,BNX,,Banja Luka,BOSNIA AND HERZEGOVINA,Banja Luka International Airport,44.941441,17.297501,1,0,1,5,0,5,0,0,0,0,0,0,618,0,0.00623
855,VST,,Stockholm,SWEDEN,Stockholm Vasteras Hasslo Airport,59.589439,16.63361,3,3,6,9,9,18,4,0.361773,0.375987,0.010989,8,0,724,0.833333,0.031597
856,IFO,,Ivano-Frankivsk,UKRAINE,Ivano-Frankivsk International Airport,48.884159,24.68611,3,0,3,20,0,20,0,0,0,0,0,0,64,0,0.022564
858,BJL,,Banjul,GAMBIA,Banjul International Airport,13.33796,-16.652201,2,0,2,2,0,2,0,0,0,0,8,0,630,1,0.022302
859,BJZ,,Badajoz,SPAIN,Badajoz Airport,38.891251,-6.82133,2,0,2,11,0,11,0,0,0,0,8,0,643,1,0.024995
861,EAS,,San Sebastian,SPAIN,San Sebastian Airport,43.35651,-1.79061,2,0,2,61,0,61,0,0,0,0,8,0,640,1,0.024995
854,VLL,,Valladolid,SPAIN,Valladolid Airport,41.706108,-4.85194,2,0,2,15,0,15,0,0,0,0,8,0,109,1,0.019724
862,NDB,,Nouadhibou,MAURITANIA,Nouadhibou International Airport,20.93306,-17.0299,1,0,1,9,0,9,0,0,0,0,8,0,629,0,0.009185
863,VIL,,Dakhla,MOROCCO,Dakhla Airport,23.713333,-15.935,1,0,1,3,0,3,0,0,0,0,8,0,628,0,0.009185
864,EUN,,El Aaiun,MOROCCO,El Aaiun Hassan Airport,27.151661,-13.2191,1,0,1,8,0,8,0,0,0,0,8,0,627,0,0.009185
865,VDE,,El Hierro,SPAIN,El Hierro Airport,27.81484,-17.886999,2,0,2,48,0,48,0,0,0,0,8,0,625,1,0.010825
866,CBB,,Cochabamba,BOLIVIA,Cochabamba Jorge Wilstermann International Airport,-17.421,-66.177101,1,0,1,2,0,2,0,0,0,0,8,0,653,0,0.011878
867,VVI,,Santa Cruz,BOLIVIA,Santa Cruz Viru Viru International Airport,-17.644699,-63.1353,1,0,1,8,0,8,0,0,0,0,8,0,652,0,0.011878
868,CLO,,Cali,COLOMBIA,Cali Alfonso Bonilla Aragon International Airport,3.543056,-76.381599,1,0,1,8,0,8,0,0,0,0,8,0,651,0,0.011878
869,MDE,,Medellin,COLOMBIA,Medellin Jose Maria Cordova International Airport,6.164444,-75.422997,1,0,1,6,0,6,0,0,0,0,8,0,650,0,0.011878
870,GYE,,Guayaquil,ECUADOR,Guayaquil International Airport,-2.15741,-79.883499,1,0,1,5,0,5,0,0,0,0,8,0,649,0,0.011878
871,SSG,,Malabo,EQUATORIAL GUINEA,Malabo International Airport,3.755267,8.708717,1,0,1,4,0,4,0,0,0,0,8,0,647,0,0.011878
872,GUA,,Guatemala City,GUATEMALA,Guatemala City La Aurora International Airport,14.58327,-90.527397,1,0,1,4,0,4,0,0,0,0,8,0,646,0,0.011878
873,SAP,,San Pedro Sula,HONDURAS,San Pedro Sula La Mesa International Airport,15.45263,-87.9235,1,0,1,1,0,1,0,0,0,0,8,0,645,0,0.011878
874,ASU,,Asuncion,PARAGUAY,Asuncion Silvio Pettirossi International Airport,-25.239799,-57.5191,1,0,1,4,0,4,0,0,0,0,8,0,644,0,0.011878
875,RJL,,Logrono,SPAIN,Logrono Agoncillo Airport,42.460953,-2.322235,1,0,1,7,0,7,0,0,0,0,8,0,642,0,0.011878
876,MLN,,Melilla,SPAIN,Melilla Airport,35.279812,-2.95625,2,0,2,78,0,78,0,0,0,0,8,0,641,1,0.022734
877,MVD,,Montevideo,URUGUAY,Montevideo Carrasco International Airport,-34.838402,-56.0308,1,0,1,10,0,10,0,0,0,0,8,0,122,0,0.011878
879,ILD,,Lleida,SPAIN,Lleida Alguaire Airport,41.726925,0.539164,2,0,2,3,0,3,0,0,0,0,8,0,624,1,0.01602
881,GMZ,,La Gomera,SPAIN,La Gomera Airport,28.016666,-17.200001,1,0,1,16,0,16,0,0,0,0,8,0,656,0,0.00164
882,SDL,,Sundsvall,SWEDEN,Sundsvall Timra Airport,62.528118,17.44392,4,0,4,64,0,64,0,0,0,0,7,0,115,0.833333,0.02002
883,CBG,,Cambridge,UNITED KINGDOM,Cambridge Airport,52.205002,0.175,2,0,2,6,0,6,0,0,0,0,7,0,112,0,0.018097
884,AGH,,Angelholm,SWEDEN,Angelholm Helsingborg Airport,56.29607,12.84713,2,0,2,67,0,67,0,0,0,0,7,0,655,0,0.010722
885,HFS,,Hagfors,SWEDEN,Hagfors Airport,60.020061,13.5789,1,0,1,8,0,8,0,0,0,0,7,0,665,0,0.010152
886,KRN,,Kiruna,SWEDEN,Kiruna Airport,67.821983,20.33676,1,0,1,18,0,18,0,0,0,0,7,0,664,0,0.010152
887,KRF,,Kramfors,SWEDEN,Kramfors Hoga Kusten Airport,63.048592,17.76885,1,0,1,11,0,11,0,0,0,0,7,0,663,0,0.010152
888,KID,,Kristianstad,SWEDEN,Kristianstad Osterlen Airport,55.92168,14.08553,1,0,1,23,0,23,0,0,0,0,7,0,662,0,0.010152
889,LYC,,Lycksele,SWEDEN,Lycksele Airport,64.548317,18.716209,1,0,1,12,0,12,0,0,0,0,7,0,661,0,0.010152
890,OER,,Ornskoldsvik,SWEDEN,Ornskoldsvik Airport,63.408329,18.99003,1,0,1,39,0,39,0,0,0,0,7,0,660,0,0.010152
891,OSD,,Ostersund,SWEDEN,Ostersund Are Airport,63.194118,14.502,2,0,2,62,0,62,0,0,0,0,7,0,118,0,0.010722
892,RNB,,Ronneby,SWEDEN,Ronneby Airport,56.266659,15.265,2,0,2,47,0,47,0,0,0,0,7,0,117,0,0.010722
893,SFT,,Skelleftea,SWEDEN,Skelleftea Airport,64.624771,21.076891,1,0,1,49,0,49,0,0,0,0,7,0,659,0,0.010152
894,EVG,,Sveg,SWEDEN,Sveg Harjedalen Airport,62.04781,14.42295,1,0,1,12,0,12,0,0,0,0,7,0,658,0,0.010152
895,VHM,,Vilhelmina,SWEDEN,Vilhelmina Airport,64.579079,16.83357,1,0,1,11,0,11,0,0,0,0,7,0,657,0,0.010152
896,HAD,,Halmstad,SWEDEN,Halmstad Airport,56.69112,12.82021,1,0,1,27,0,27,0,0,0,0,7,0,654,0,0.00057
897,THN,,Trollhattan,SWEDEN,Trollhattan Vanersborg Airport,58.31805,12.345,1,0,1,17,0,17,0,0,0,0,7,0,116,0,0.00057
898,EBA,,Elba,ITALY,Elba Marina di Campo Airport,42.760269,10.23944,1,0,1,4,0,4,0,0,0,0,0,0,623,0,0.001621
899,LUG,,Lugano,SWITZERLAND,Lugano Airport,46.004269,8.910578,1,1,2,32,32,64,4,0.344448,0.355905,0,0,0,724,0,0.01118
902,MED,,Medina,SAUDI ARABIA,Medina Prince Mohammad bin Abdulaziz Airport,24.553419,39.705059,6,0,6,60,0,60,0,0,0,0,2,0,101,0.966667,0.030589
900,ECN,,Tymvou,TURKEY,Tymvou Ercan International Airport,35.15472,33.496109,6,0,6,249,0,249,0,0,0,0,2,0,69,0.966667,0.030589
901,VAN,,Van,TURKEY,Van Airport,38.468208,43.332298,6,0,6,96,0,96,0,0,0,0,2,0,68,0.966667,0.030589
903,ADF,,Adiyaman,TURKEY,Adiyaman Airport,37.731361,38.468929,3,0,3,22,0,22,0,0,0,0,2,0,100,0.833333,0.017885
904,AJI,,Agri,TURKEY,Agri Airport,39.65456,43.027149,3,0,3,20,0,20,0,0,0,0,2,0,99,0.833333,0.017885
905,HTY,,Antakya,TURKEY,Antakya Hatay Airport,36.362778,36.282223,4,0,4,69,0,69,0,0,0,0,2,0,98,0.916667,0.021677
906,BAL,,Batman,TURKEY,Batman Airport,37.928959,41.116581,4,0,4,47,0,47,0,0,0,0,2,0,97,0.916667,0.021677
907,BGG,,Bingol,TURKEY,Bingol Airport,38.861111,40.592499,3,0,3,17,0,17,0,0,0,0,2,0,96,0.833333,0.017885
908,YEI,,Bursa,TURKEY,Bursa Yenisehir Airport,40.255001,29.5625,2,0,2,9,0,9,0,0,0,0,2,0,666,1,0.002851
909,CKZ,,Canakkale,TURKEY,Canakkale Airport,40.137718,26.426769,2,0,2,18,0,18,0,0,0,0,2,0,670,1,0.012036
910,DIY,,Diyarbakir,TURKEY,Diyarbakır Airport,37.89389,40.201012,5,0,5,145,0,145,0,0,0,0,2,0,94,0.95,0.029274
911,EDO,,Edremit,TURKEY,Edremit Balikesir Koca Seyit Airport,39.549999,27.01,3,0,3,43,0,43,0,0,0,0,2,0,93,0.833333,0.017885
912,ERC,,Erzincan,TURKEY,Erzincan Airport,39.710201,39.527,3,0,3,36,0,36,0,0,0,0,2,0,91,0.833333,0.017885
913,ERZ,,Erzurum,TURKEY,Erzurum Airport,39.956501,41.170158,5,0,5,90,0,90,0,0,0,0,2,0,90,0.95,0.029274
914,IGD,,Igdir,TURKEY,Igdir Airport,39.983055,43.86639,3,0,3,19,0,19,0,0,0,0,2,0,88,0.833333,0.017885
915,KCM,,Kahramanmaras,TURKEY,Kahramanmaras Airport,37.534401,36.9505,3,0,3,28,0,28,0,0,0,0,2,0,87,0.833333,0.017885
916,KSY,,Kars,TURKEY,Kars Harakani Airport,40.562222,43.115002,4,0,4,40,0,40,0,0,0,0,2,0,86,0.916667,0.021677
917,MLX,,Malatya,TURKEY,Malatya Erhac Airport,38.435341,38.091,5,0,5,62,0,62,0,0,0,0,2,0,82,0.95,0.029274
918,MQM,,Mardin,TURKEY,Mardin Airport,37.223331,40.63166,4,0,4,49,0,49,0,0,0,0,2,0,81,0.916667,0.021677
919,MSR,,Mus,TURKEY,Mus Airport,38.747761,41.661228,3,0,3,25,0,25,0,0,0,0,2,0,79,0.833333,0.017885
920,OGU,,Ordu,TURKEY,Ordu Giresun Airport,40.966667,38.066666,4,0,4,81,0,81,0,0,0,0,2,0,76,0.916667,0.021677
921,GNY,,Sanliurfa,TURKEY,Sanliurfa GAP Airport,37.450001,38.900002,4,0,4,66,0,66,0,0,0,0,2,0,74,0.916667,0.021677
922,NKT,,Sirnak,TURKEY,Sirnak Airport,37.363888,42.060001,3,0,3,29,0,29,0,0,0,0,2,0,72,0.833333,0.017885
923,TEQ,,Tekirdag,TURKEY,Tekirdag Corlu Airport,41.138332,27.919167,1,0,1,8,0,8,0,0,0,0,2,0,669,0,0.002139
924,YKO,,Yuksekova,TURKEY,Yuksekova Hakkari Airport,37.545242,44.255165,2,0,2,16,0,16,0,0,0,0,2,0,668,1,0.012036
925,AWZ,,Ahvaz,IRAN,Ahwaz International Airport,31.337429,48.761951,1,0,1,4,0,4,0,0,0,0,2,0,689,0,0.009897
926,IFN,,Isfahan,IRAN,Isfahan International Airport,32.750832,51.861259,1,0,1,8,0,8,0,0,0,0,2,0,688,0,0.009897
927,MHD,,Mashhad,IRAN,Mashhad International Airport,36.235191,59.640968,1,0,1,8,0,8,0,0,0,0,2,0,687,0,0.009897
928,OMH,,Urmia,IRAN,Urmia Airport,37.668121,45.068699,1,0,1,3,0,3,0,0,0,0,2,0,686,0,0.009897
929,BEN,,Benghazi,LIBYA,Benghazi Benina International Airport,32.096779,20.26947,1,0,1,4,0,4,0,0,0,0,2,0,685,0,0.009897
930,MRA,,Misrata,LIBYA,Misrata International Airport,32.325558,15.059722,1,0,1,8,0,8,0,0,0,0,2,0,684,0,0.009897
931,TIP,,Tripoli,LIBYA,Tripoli International Airport,32.66354,13.15901,1,0,1,8,0,8,0,0,0,0,2,0,683,0,0.009897
334,MJI,,Tripoli,LIBYA,Tripoli Mitiga International Airport,32.889999,13.27,1,0,1,12,0,12,0,0,0,0,2,0,682,0,0.009897
932,KTM,,Kathmandu,NEPAL,Kathmandu Tribhuvan International Airport,27.696581,85.3591,1,0,1,5,0,5,0,0,0,0,2,0,681,0,0.009897
934,KHI,,Karachi,PAKISTAN,Karachi Jinnah International Airport,24.90654,67.160789,2,0,2,11,0,11,0,0,0,0,2,0,680,1,0.019057
935,MNL,,Manila,PHILIPPINES,Manila Ninoy Aquino International Airport,14.50864,121.019501,2,0,2,16,0,16,0,0,0,0,2,0,679,1,0.019057
936,ELQ,,Al-Qassim,SAUDI ARABIA,Al-Qassim Regional Airport,26.30282,43.773911,1,0,1,3,0,3,0,0,0,0,2,0,678,0,0.009897
937,TIF,,Taif,SAUDI ARABIA,Taif Airport,21.48341,40.544331,1,0,1,4,0,4,0,0,0,0,2,0,677,0,0.009897
938,YNB,,Yanbu,SAUDI ARABIA,Yanbu Airport,24.144239,38.063351,1,0,1,8,0,8,0,0,0,0,2,0,676,0,0.009897
939,DAR,,Dar-es-Salaam,TANZANIA,Dar-es-Salaam Julius Nyerere International Airport,-6.87811,39.202621,1,0,1,5,0,5,0,0,0,0,2,0,675,0,0.009897
941,DNZ,,Cardak,TURKEY,Denizli Cardak Airport,37.785561,29.70129,2,0,2,42,0,42,0,0,0,0,2,0,95,0.5,0.015746
942,ISE,,Isparta,TURKEY,Isparta Suleyman Demirel Airport,37.866112,30.382221,1,0,1,8,0,8,0,0,0,0,2,0,673,0,0.009897
943,KFS,,Kastamonu,TURKEY,Kastamonu Airport,41.314167,33.795555,2,0,2,9,0,9,0,0,0,0,2,0,85,0.5,0.015746
944,KZR,,Kutahya,TURKEY,Kutahya Zafer Airport,39.111389,30.129999,1,0,1,8,0,8,0,0,0,0,2,0,672,0,0.009897
945,MZH,,Merzifon,TURKEY,Merzifon Airport,40.829369,35.521992,2,0,2,11,0,11,0,0,0,0,2,0,80,0.5,0.015746
946,NAV,,Nevsehir,TURKEY,Nevsehir Kapadokya Airport,38.76889,34.52639,2,0,2,32,0,32,0,0,0,0,2,0,78,0.5,0.015746
947,NOP,,Sinop,TURKEY,Sinop Airport,42.019001,35.079189,2,0,2,17,0,17,0,0,0,0,2,0,73,0.5,0.015746
948,VAS,,Sivas,TURKEY,Sivas Nuri Demirag Airport,39.81382,36.903488,3,0,3,44,0,44,0,0,0,0,2,0,71,0.833333,0.019538
949,EBB,,Entebbe,UGANDA,Entebbe International Airport,0.042386,32.443501,1,0,1,2,0,2,0,0,0,0,2,0,671,0,0.009897
950,KHE,,Kherson,UKRAINE,Kherson International Airport,46.672394,32.507988,2,0,2,26,0,26,0,0,0,0,0,0,62,1,0.015362
951,KCO,,Izmit,TURKEY,Izmit Topel Airport,40.735027,30.083336,1,0,1,4,0,4,0,0,0,0,2,0,70,0,0.000713
952,CMB,,Colombo,SRI LANKA,Colombo Bandaranaike International Airport,7.180756,79.884109,2,0,2,11,0,11,0,0,0,0,4,0,667,1,0.014624
953,VIN,,Vinnytsia,UKRAINE,Vinnytsia Havryshivka International Airport,49.243427,28.6112,1,0,1,8,0,8,0,0,0,0,0,0,61,0,0.005464
954,KOI,,Kirkwall,UNITED KINGDOM,Kirkwall Airport,58.957771,-2.905,3,0,3,59,0,59,0,0,0,0,4,0,701,0,0.02175
956,SYY,,Stornoway,UNITED KINGDOM,Stornoway Airport,58.215549,-6.33111,3,0,3,53,0,53,0,0,0,0,4,0,8,0,0.02175
957,LSI,,Sumburgh,UNITED KINGDOM,Sumburgh Airport,59.87888,-1.29555,3,0,3,67,0,67,0,0,0,0,4,0,7,0,0.02175
958,WIC,,Wick,UNITED KINGDOM,Wick Airport,58.458881,-3.09305,2,0,2,20,0,20,0,0,0,0,4,0,43,0,0.014455
959,ATQ,,Amritsar,INDIA,Amritsar International Airport,31.709591,74.797256,1,0,1,4,0,4,0,0,0,0,4,0,691,0,0.008595
961,GIB,,Gibraltar,GIBRALTAR,Gibraltar Airport,36.151211,-5.34966,4,0,4,32,0,32,0,0,0,0,4,0,692,0.25,0.040562
962,CEG,,Chester,UNITED KINGDOM,Chester Hawarden Airport,53.178051,-2.97777,1,0,1,5,0,5,0,0,0,0,8,0,52,0,0.008953
963,VLY,,Anglesey,UNITED KINGDOM,Anglesey Airport,53.240002,-4.53,1,0,1,12,0,12,0,0,0,0,4,0,49,0,0.003941
965,DNR,,Dinard,FRANCE,Dinard Pleurtuit Saint-Malo Airport,48.587769,-2.08,2,0,2,9,0,9,0,0,0,0,8,0,700,0,0.017565
966,YHZ,,Halifax,CANADA,Halifax Stanfield International Airport,44.880829,-63.508598,3,0,3,20,0,20,0,0,0,0,4,0,707,0.666667,0.027716
967,BRR,,Barra,UNITED KINGDOM,Barra Airport,57.016998,-7.433,1,0,1,20,0,20,0,0,0,0,4,0,721,0,0.007295
968,BEB,,Benbecula,UNITED KINGDOM,Benbecula Airport,57.48111,-7.36277,1,0,1,14,0,14,0,0,0,0,4,0,720,0,0.007295
969,CAL,,Campbeltown,UNITED KINGDOM,Campbeltown Airport,55.43,-5.68,1,0,1,13,0,13,0,0,0,0,4,0,719,0,0.007295
970,LDY,,Londonderry,UNITED KINGDOM,City of Derry Airport,55.04277,-7.16111,3,0,3,23,0,23,0,0,0,0,8,0,47,0.333333,0.024206
971,ILY,,Islay,UNITED KINGDOM,Islay Airport,55.681938,-6.25666,1,0,1,17,0,17,0,0,0,0,4,0,718,0,0.007295
972,TRE,,Tiree,UNITED KINGDOM,Tiree Airport,56.499161,-6.86916,1,0,1,15,0,15,0,0,0,0,4,0,6,0,0.007295
653,ANU,,Antigua,ANTIGUA AND BARBUDA,Antigua V. C. Bird International Airport,17.13674,-61.792599,1,0,1,10,0,10,0,0,0,0,8,0,709,0,0.011261
973,BDA,,Bermuda,BERMUDA,Bermuda L.F. Wade International Airport,32.36404,-64.678703,1,0,1,8,0,8,0,0,0,0,8,0,708,0,0.011261
974,LIR,,Liberia,COSTA RICA,Liberia International Airport,10.59301,-85.545502,1,0,1,1,0,1,0,0,0,0,8,0,706,0,0.011261
821,CCC,,Cayo Coco,CUBA,Cayo Coco Jardines del Rey Airport,22.461111,-78.328613,2,0,2,3,0,3,0,0,0,0,4,0,705,0.5,0.022449
975,KIN,,Kingston,JAMAICA,Kingston Norman Manley International Airport,17.935659,-76.787498,1,0,1,4,0,4,0,0,0,0,8,0,704,0,0.011261
976,PVR,,Puerto Vallarta,MEXICO,Puerto Vallarta International Airport,20.68008,-105.253998,2,0,2,2,0,2,0,0,0,0,4,0,703,0.5,0.022449
977,UVF,,Vieux Fort,SAINT LUCIA,Vieux Fort Hewanorra International Airport,13.73319,-60.952499,1,0,1,12,0,12,0,0,0,0,8,0,702,0,0.011261
978,AUS,,Austin,UNITED STATES,Austin Bergstrom International Airport,30.194521,-97.6698,2,0,2,11,0,11,0,0,0,0,4,0,36,0,0.020421
979,PER,,Perth,AUSTRALIA,Perth Airport,-31.940201,115.966904,1,0,1,8,0,8,0,0,0,0,4,0,716,0,0.00916
980,NAS,,Nassau,BAHAMAS,Nassau Lynden Pindling International Airport,25.03895,-77.466202,1,0,1,4,0,4,0,0,0,0,4,0,715,0,0.00916
981,ZYL,,Sylhet,BANGLADESH,Sylhet Osmani International Airport,24.96324,91.866783,1,0,1,4,0,4,0,0,0,0,4,0,714,0,0.00916
982,YOW,,Ottawa,CANADA,Ottawa Macdonald-Cartier International Airport,45.322498,-75.669098,1,0,1,6,0,6,0,0,0,0,4,0,713,0,0.00916
983,AMD,,Ahmedabad,INDIA,Ahmedabad International Airport,23.07724,72.634651,1,0,1,4,0,4,0,0,0,0,4,0,712,0,0.00916
984,HYD,,Hyderabad,INDIA,Hyderabad Rajiv Gandhi International Airport,17.254,78.431,1,0,1,8,0,8,0,0,0,0,4,0,711,0,0.00916
986,BNA,,Nashville,UNITED STATES,Nashville International Airport,36.12447,-86.678101,1,0,1,6,0,6,0,0,0,0,4,0,23,0,0.00916
988,MSY,,New Orleans,UNITED STATES,New Orleans Louis Armstrong International Airport,29.99338,-90.258003,1,0,1,5,0,5,0,0,0,0,4,0,22,0,0.00916
989,PHX,,Phoenix,UNITED STATES,Phoenix Sky Harbor International Airport,33.434269,-112.011002,1,0,1,10,0,10,0,0,0,0,4,0,20,0,0.00916
992,TAT,,Poprad,SLOVAKIA,Poprad Tatry Airport,49.073589,20.24114,1,0,1,3,0,3,0,0,0,0,0,0,710,0,0.009704
994,GNB,,Grenoble,FRANCE,Grenoble Isere Airport,45.363049,5.332778,1,0,1,4,0,4,0,0,0,0,8,0,723,0,0.011339
995,DND,,Dundee,UNITED KINGDOM,Dundee Airport,56.452492,-3.02583,1,0,1,13,0,13,0,0,0,0,8,0,722,0,0.011339
997,ACI,,Alderney,UNITED KINGDOM,Alderney Airport,49.706108,-2.21472,1,0,1,23,0,23,0,0,0,0,4,0,717,0,0.002256
187,OAI,,Bagram,AFGHANISTAN,Logistics Support Area Anaconda,34.959614,69.270508,0,0,0,0,0,0,0,0,0,0,9,1,725,0,0
196,VBS,,Brescia,ITALY,Brescia Airport,45.428879,10.33055,0,0,0,0,0,0,0,0,0,0,10,2,726,0,0
332,MEM,,Memphis,UNITED STATES,Memphis International Airport,35.042412,-89.976601,0,0,0,0,0,0,0,0,0,0,11,3,727,0,0
333,LUN,,Lusaka,ZAMBIA,Lusaka Kenneth Kaunda International Airport,-15.3308,28.45262,0,0,0,0,0,0,0,0,0,0,12,4,728,0,0
378,UHE,,Kunovice,CZECH REPUBLIC,Kunovice Airport,49.0294,17.439699,0,0,0,0,0,0,0,0,0,0,13,5,729,0,0
466,BQH,,London,UNITED KINGDOM,London Biggin Hill Airport,51.33083,0.0325,0,0,0,0,0,0,0,0,0,0,14,6,730,0,0
467,NHT,,Northolt,UNITED KINGDOM,RAF Northolt,51.553001,-0.41816,0,0,0,0,0,0,0,0,0,0,15,7,731,0,0
508,TCE,,Tulcea,ROMANIA,Cataloi,45.062481,28.71431,0,0,0,0,0,0,0,0,0,0,16,8,732,0,0
545,BGR,,Bangor,UNITED STATES,Bangor International Airport,44.807442,-68.828102,0,0,0,0,0,0,0,0,0,0,17,9,733,0,0
635,RKV,,Reykjavik,ICELAND,Reykjavik Airport,64.12999,-21.9405,0,0,0,0,0,0,0,0,0,0,18,10,734,0,0
662,BLK,,Blackpool,UNITED KINGDOM,Blackpool International Airport,53.77166,-3.02861,0,0,0,0,0,0,0,0,0,0,19,11,735,0,0
664,YQX,,Gander,CANADA,Gander International Airport,48.936939,-54.568001,0,0,0,0,0,0,0,0,0,0,20,12,736,0,0
734,FAB,,Farnborough,UNITED KINGDOM,Farnborough Airport,51.275829,-0.77633,0,0,0,0,0,0,0,0,0,0,21,13,737,0,0
851,RVI,,Rostov-on-Don,RUSSIA,Rostov-on-Don Airport,47.258202,39.818081,0,0,0,0,0,0,0,0,0,0,22,14,738,0,0
857,OXF,,Oxford,UNITED KINGDOM,London Oxford Airport,51.836941,-1.32,0,0,0,0,0,0,0,0,0,0,23,15,739,0,0
878,JCU,,Ceuta,SPAIN,Ceuta Heliport,35.892799,-5.30639,0,0,0,0,0,0,0,0,0,0,24,16,740,0,0
933,KAN,,Kano,NIGERIA,Kano Mallam Aminu International Airport,12.04758,8.524622,0,0,0,0,0,0,0,0,0,0,25,17,741,0,0
955,SCS,,Scatsta,UNITED KINGDOM,Scatsta Airport,60.432777,-1.296111,0,0,0,0,0,0,0,0,0,0,26,18,742,0,0
960,CVT,,Coventry,UNITED KINGDOM,Coventry Airport,52.36972,-1.47972,0,0,0,0,0,0,0,0,0,0,27,19,743,0,0
964,SWS,,Swansea,UNITED KINGDOM,Swansea Airport,51.605331,-4.06783,0,0,0,0,0,0,0,0,0,0,28,20,744,0,0
985,PLH,,Plymouth,UNITED KINGDOM,Plymouth,50.422771,-4.10583,0,0,0,0,0,0,0,0,0,0,29,21,745,0,0
987,WNC,,Tuxekan Island,UNITED STATES,Naukati Bay Seaplane Base,55.849602,-133.227997,0,0,0,0,0,0,0,0,0,0,30,22,746,0,0
990,QEW,,Wiener Neustadt,AUSTRIA,Wiener Neustadt East Airport,47.843334,16.26,0,0,0,0,0,0,0,0,0,0,31,23,747,0,0
991,LBG,,Paris,FRANCE,Paris Le Bourget Airport,48.958801,2.4336,0,0,0,0,0,0,0,0,0,0,32,24,748,0,0
993,HPN,,White Plains,UNITED STATES,White Plains Westchester County Airport,41.06694,-73.707497,0,0,0,0,0,0,0,0,0,0,33,25,749,0,0
996,OKC,,Oklahoma City,UNITED STATES,Oklahoma City Will Rogers World Airport,35.393082,-97.6007,0,0,0,0,0,0,0,0,0,0,34,26,750,0,0
